LIVE CHECK	IP:PORT	Ping	Zip	City	Country	Type
Mon Apr 21 2025 15:19:27 GMT+0700 (Indochina Time)	64.202.184.249:62162	1706.98ms	20149	Ashburn	United States	SOCKS4
Mon Apr 21 2025 15:20:33 GMT+0700 (Indochina Time)	45.78.215.172:20000	1240.32ms	858877	Singapore	Singapore	SOCKS4
Mon Apr 21 2025 15:20:33 GMT+0700 (Indochina Time)	5.178.204.235:2082	1059.96ms		Tbilisi	Georgia	SOCKS4
Mon Apr 21 2025 15:20:33 GMT+0700 (Indochina Time)	162.240.10.35:50148	1043.67ms	84606	Provo	United States	SOCKS4
Mon Apr 21 2025 15:20:33 GMT+0700 (Indochina Time)	43.153.98.107:13001	1097.65ms		Santa Clara	United States	SOCKS4
Mon Apr 21 2025 15:20:33 GMT+0700 (Indochina Time)	27.189.129.127:8089	1668.41ms	50000	Shijiazhuang	China	SOCKS4
Mon Apr 21 2025 15:20:33 GMT+0700 (Indochina Time)	123.182.58.45:8089	1098.41ms	50000	Shijiazhuang	China	SOCKS4
Mon Apr 21 2025 15:20:33 GMT+0700 (Indochina Time)	83.168.84.62:4153	1543.45ms	50-019	Wroclaw	Poland	SOCKS4
Mon Apr 21 2025 15:20:33 GMT+0700 (Indochina Time)	106.12.111.83:9103	1194.52ms	100000	Beijing	China	SOCKS4
Mon Apr 21 2025 15:20:33 GMT+0700 (Indochina Time)	67.43.236.20:2023	1008.92ms	H4X	Montreal	Canada	SOCKS4
Mon Apr 21 2025 15:20:34 GMT+0700 (Indochina Time)	187.103.0.29:5678	1043.77ms	44700	Jacobina	Brazil	SOCKS4
Mon Apr 21 2025 15:20:34 GMT+0700 (Indochina Time)	89.237.34.190:51549	1092.67ms		Novotroitsk	Russia	SOCKS4
Mon Apr 21 2025 15:20:34 GMT+0700 (Indochina Time)	31.58.18.6:6275	2201.02ms	EC1N	London	United Kingdom	SOCKS4
Mon Apr 21 2025 15:20:34 GMT+0700 (Indochina Time)	46.0.203.186:8080	1108.69ms	404146	Samara	Russia	SOCKS4
Mon Apr 21 2025 15:20:35 GMT+0700 (Indochina Time)	202.131.159.210:80	1619.59ms	400017	Mumbai	India	SOCKS4
Mon Apr 21 2025 15:20:35 GMT+0700 (Indochina Time)	190.216.69.228:4153	1011.1ms	6005	General Arenales	Argentina	SOCKS4
Mon Apr 21 2025 15:20:36 GMT+0700 (Indochina Time)	177.36.35.166:5678	1221.55ms	97000	Santa Maria	Brazil	SOCKS4
Mon Apr 21 2025 15:20:36 GMT+0700 (Indochina Time)	91.203.114.71:42905	1519.36ms	8720	Trypillia	Ukraine	SOCKS4
Mon Apr 21 2025 15:20:36 GMT+0700 (Indochina Time)	16.163.88.228:80	1109.14ms		Hong Kong	Hong Kong	SOCKS4
Mon Apr 21 2025 15:21:33 GMT+0700 (Indochina Time)	43.225.187.186:4145	1009.16ms	29445	Batam	Indonesia	SOCKS4
Mon Apr 21 2025 15:21:33 GMT+0700 (Indochina Time)	201.157.254.26:8080	1354.19ms	40000	Salvador	Brazil	SOCKS4
Mon Apr 21 2025 15:21:33 GMT+0700 (Indochina Time)	176.108.104.84:38954	1008.04ms	58012	Chernivtsi	Ukraine	SOCKS4
Mon Apr 21 2025 15:21:33 GMT+0700 (Indochina Time)	27.254.99.183:8118	998.61ms	10320	Huai Khwang	Thailand	SOCKS4
Mon Apr 21 2025 15:21:33 GMT+0700 (Indochina Time)	168.232.60.89:5678	1012.01ms	39735	Divinol?ndia de Minas	Brazil	SOCKS4
Mon Apr 21 2025 15:21:33 GMT+0700 (Indochina Time)	191.7.209.186:31576	999.22ms	63740	Novo Oriente	Brazil	SOCKS4
Mon Apr 21 2025 15:21:33 GMT+0700 (Indochina Time)	101.47.142.210:20000	2061.72ms	858877	Singapore	Singapore	SOCKS4
Mon Apr 21 2025 15:21:33 GMT+0700 (Indochina Time)	39.170.85.129:7302	994.24ms		Hangzhou	China	SOCKS4
Mon Apr 21 2025 15:21:34 GMT+0700 (Indochina Time)	8.130.54.67:8008	1003.91ms		Beijing	China	SOCKS4
Mon Apr 21 2025 15:21:34 GMT+0700 (Indochina Time)	152.70.104.79:1080	1000.86ms	270-1351	Tokyo	Japan	SOCKS4
Mon Apr 21 2025 15:21:34 GMT+0700 (Indochina Time)	67.43.227.227:1589	1222.05ms	H4X	Montreal	Canada	SOCKS4
Mon Apr 21 2025 15:21:35 GMT+0700 (Indochina Time)	156.228.125.226:3128	1508.37ms	20149	Ashburn	United States	SOCKS4
Mon Apr 21 2025 15:21:35 GMT+0700 (Indochina Time)	45.78.227.198:20000	1746.62ms	858877	Singapore	Singapore	SOCKS4
Mon Apr 21 2025 15:21:35 GMT+0700 (Indochina Time)	8.146.207.243:8888	1041.66ms		Beijing	China	SOCKS4
Mon Apr 21 2025 15:22:33 GMT+0700 (Indochina Time)	195.248.242.249:1080	1329.9ms	90403	Nuremberg	Germany	SOCKS4
Mon Apr 21 2025 15:22:33 GMT+0700 (Indochina Time)	187.72.239.185:4145	1040.11ms	75500	Itumbiara	Brazil	SOCKS4
Mon Apr 21 2025 15:22:33 GMT+0700 (Indochina Time)	8.211.194.85:8008	1039.05ms	EC1N	London	United Kingdom	SOCKS4
Mon Apr 21 2025 15:22:33 GMT+0700 (Indochina Time)	202.123.183.66:5678	1118.38ms		Vientiane	Laos	SOCKS4
Mon Apr 21 2025 15:22:33 GMT+0700 (Indochina Time)	36.90.3.150:4145	1011.14ms		Jakarta Pusat	Indonesia	SOCKS4
Mon Apr 21 2025 15:22:34 GMT+0700 (Indochina Time)	202.149.89.70:7999	1667.99ms		Jakarta	Indonesia	SOCKS4
Mon Apr 21 2025 15:22:34 GMT+0700 (Indochina Time)	161.97.129.202:9060	1694.92ms	40599	D?sseldorf	Germany	SOCKS4
Mon Apr 21 2025 15:22:34 GMT+0700 (Indochina Time)	170.80.71.78:5678	1013.5ms	25950	Teres?polis	Brazil	SOCKS4
Mon Apr 21 2025 15:22:34 GMT+0700 (Indochina Time)	72.10.160.93:13155	1022.13ms	H4X	Montreal	Canada	SOCKS4
Mon Apr 21 2025 15:22:34 GMT+0700 (Indochina Time)	202.124.46.101:4145	1552.7ms		Phnom Penh	Cambodia	SOCKS4
Mon Apr 21 2025 15:22:35 GMT+0700 (Indochina Time)	94.23.83.149:4153	1787.16ms	75001	Paris	France	SOCKS4
Mon Apr 21 2025 15:22:35 GMT+0700 (Indochina Time)	186.103.143.213:4153	998.22ms		Renca	Chile	SOCKS4
Mon Apr 21 2025 15:22:35 GMT+0700 (Indochina Time)	45.112.57.230:47509	1012.02ms	400014	Mumbai	India	SOCKS4
Mon Apr 21 2025 15:22:35 GMT+0700 (Indochina Time)	182.16.185.12:8080	1007.03ms	12980	Jakarta	Indonesia	SOCKS4
Mon Apr 21 2025 15:23:33 GMT+0700 (Indochina Time)	88.42.237.102:8080	1421.61ms	37135	Verona	Italy	SOCKS4
Mon Apr 21 2025 15:23:33 GMT+0700 (Indochina Time)	13.40.239.130:1080	1038.21ms	W1B	London	United Kingdom	SOCKS4
Mon Apr 21 2025 15:23:33 GMT+0700 (Indochina Time)	80.80.164.164:10801	1051.6ms		Pristina	Kosovo	SOCKS4
Mon Apr 21 2025 15:23:34 GMT+0700 (Indochina Time)	117.54.134.51:8080	1024.97ms	40241	Bandung	Indonesia	SOCKS4
Mon Apr 21 2025 15:23:34 GMT+0700 (Indochina Time)	178.173.171.10:4145	1031.31ms		Shiraz	Iran	SOCKS4
Mon Apr 21 2025 15:23:34 GMT+0700 (Indochina Time)	38.22.17.50:3128	1249.3ms		Atlanta	United States	SOCKS4
Mon Apr 21 2025 15:23:34 GMT+0700 (Indochina Time)	220.67.2.2:80	1516.33ms	42432	Daemyeong-dong	South Korea	SOCKS4
Mon Apr 21 2025 15:23:34 GMT+0700 (Indochina Time)	158.255.77.168:80	1544.53ms		Ras al-Khaimah	United Arab Emirates	SOCKS4
Mon Apr 21 2025 15:23:34 GMT+0700 (Indochina Time)	184.169.154.119:80	1041.92ms	95141	San Jose	United States	SOCKS4
Mon Apr 21 2025 15:23:35 GMT+0700 (Indochina Time)	176.98.156.64:4145	1044.06ms	368500	Izberbash	Russia	SOCKS4
Mon Apr 21 2025 15:23:35 GMT+0700 (Indochina Time)	27.189.132.110:8089	1005.77ms	50000	Shijiazhuang	China	SOCKS4
Mon Apr 21 2025 15:23:35 GMT+0700 (Indochina Time)	149.129.255.179:8080	1128.86ms	12850	Jakarta	Indonesia	SOCKS4
Mon Apr 21 2025 15:23:35 GMT+0700 (Indochina Time)	103.75.26.174:8080	1002.16ms		Jakarta	Indonesia	SOCKS4
Mon Apr 21 2025 15:23:35 GMT+0700 (Indochina Time)	65.108.203.36:18080	1006.06ms	201	Helsinki	Finland	SOCKS4
Mon Apr 21 2025 15:24:33 GMT+0700 (Indochina Time)	172.233.14.116:1080	3564.82ms	1323	S?o Paulo	Brazil	SOCKS4
Mon Apr 21 2025 15:24:33 GMT+0700 (Indochina Time)	103.76.172.230:4153	1004.34ms	17135	Bekasi	Indonesia	SOCKS4
Mon Apr 21 2025 15:24:34 GMT+0700 (Indochina Time)	103.31.157.205:4145	1048.99ms		Jakarta	Indonesia	SOCKS4
Mon Apr 21 2025 15:24:34 GMT+0700 (Indochina Time)	147.75.34.103:10006	1053.73ms	1012	Amsterdam	The Netherlands	SOCKS4
Mon Apr 21 2025 15:24:34 GMT+0700 (Indochina Time)	45.78.228.123:20000	999.54ms	858877	Singapore	Singapore	SOCKS4
Mon Apr 21 2025 15:24:34 GMT+0700 (Indochina Time)	35.178.104.4:1080	1019.06ms	W1B	London	United Kingdom	SOCKS4
Mon Apr 21 2025 15:24:35 GMT+0700 (Indochina Time)	54.179.180.4:8080	1017.83ms	48582	Singapore	Singapore	SOCKS4
Mon Apr 21 2025 15:24:35 GMT+0700 (Indochina Time)	43.153.48.134:13001	1073.23ms		Santa Clara	United States	SOCKS4
Mon Apr 21 2025 15:24:35 GMT+0700 (Indochina Time)	154.79.249.72:5678	1030.35ms	9831	Nairobi	Kenya	SOCKS4
Mon Apr 21 2025 15:24:35 GMT+0700 (Indochina Time)	27.79.224.121:16000	1032.09ms	100000	Hanoi	Vietnam	SOCKS4
Mon Apr 21 2025 15:25:33 GMT+0700 (Indochina Time)	8.221.141.88:4002	1002.08ms	102-0082	Tokyo	Japan	SOCKS4
Mon Apr 21 2025 15:25:33 GMT+0700 (Indochina Time)	179.49.117.19:999	1040.81ms		San Pedro Sula	Honduras	SOCKS4
Mon Apr 21 2025 15:25:33 GMT+0700 (Indochina Time)	67.43.236.20:11399	1006.11ms	H4X	Montreal	Canada	SOCKS4
Mon Apr 21 2025 15:25:33 GMT+0700 (Indochina Time)	45.162.135.155:999	1643.47ms		El Monte	Chile	SOCKS4
Mon Apr 21 2025 15:25:34 GMT+0700 (Indochina Time)	54.37.78.53:27606	1331.17ms	66111	Saarbr?cken	Germany	SOCKS4
Mon Apr 21 2025 15:25:34 GMT+0700 (Indochina Time)	51.159.134.210:3128	999.56ms	75001	Paris	France	SOCKS4
Mon Apr 21 2025 15:25:34 GMT+0700 (Indochina Time)	156.228.115.203:3128	1491.68ms	20149	Ashburn	United States	SOCKS4
Mon Apr 21 2025 15:25:34 GMT+0700 (Indochina Time)	45.78.209.51:20000	1015.87ms	858877	Singapore	Singapore	SOCKS4
Mon Apr 21 2025 15:25:35 GMT+0700 (Indochina Time)	111.72.198.12:2324	1197.12ms		Shenzhen	China	SOCKS4
Mon Apr 21 2025 15:25:35 GMT+0700 (Indochina Time)	172.104.129.235:1080	1003.11ms	60313	Frankfurt am Main	Germany	SOCKS4
Mon Apr 21 2025 15:25:35 GMT+0700 (Indochina Time)	.10.164.178:4385	1009.6ms	----	--	Unknown	SOCKS4
Mon Apr 21 2025 15:25:35 GMT+0700 (Indochina Time)	158.58.197.227:50128	1626.48ms	9300	Dobrich	Bulgaria	SOCKS4
Mon Apr 21 2025 15:25:36 GMT+0700 (Indochina Time)	36.91.45.11:51299	1014.96ms	12980	Jakarta	Indonesia	SOCKS4
Mon Apr 21 2025 15:26:33 GMT+0700 (Indochina Time)	114.223.187.45:8089	1014.73ms		Wuxi	China	SOCKS4
Mon Apr 21 2025 15:26:33 GMT+0700 (Indochina Time)	183.63.148.220:1080	1048.82ms		Guangzhou	China	SOCKS4
Mon Apr 21 2025 15:26:33 GMT+0700 (Indochina Time)	117.20.57.159:5678	1059.34ms		Sleman	Indonesia	SOCKS4
Mon Apr 21 2025 15:26:33 GMT+0700 (Indochina Time)	101.47.9.3:20000	1949.87ms	858877	Singapore	Singapore	SOCKS4
Mon Apr 21 2025 15:26:33 GMT+0700 (Indochina Time)	153.127.195.58:4444	999.63ms	540-0002	Osaka	Japan	SOCKS4
Mon Apr 21 2025 15:26:34 GMT+0700 (Indochina Time)	202.163.127.244:5678	1060.82ms	54000	Lahore	Pakistan	SOCKS4
Mon Apr 21 2025 15:26:34 GMT+0700 (Indochina Time)	180.191.59.41:51804	1019.79ms	2300	Tarlac City	Philippines	SOCKS4
Mon Apr 21 2025 15:26:34 GMT+0700 (Indochina Time)	43.252.75.234:8080	997.3ms		Jakarta	Indonesia	SOCKS4
Mon Apr 21 2025 15:26:34 GMT+0700 (Indochina Time)	119.46.2.245:4145	1446.2ms	10170	Bangkok	Thailand	SOCKS4
Mon Apr 21 2025 15:26:35 GMT+0700 (Indochina Time)	118.172.181.147:51411	1441.68ms	10210	Khwaeng Thung Song Hong	Thailand	SOCKS4
Mon Apr 21 2025 15:26:35 GMT+0700 (Indochina Time)	60.248.77.76:3000	1469.36ms		Taoyuan District	Taiwan	SOCKS4
Mon Apr 21 2025 15:27:33 GMT+0700 (Indochina Time)	45.78.230.128:20000	1022.93ms	858877	Singapore	Singapore	SOCKS4
Mon Apr 21 2025 15:27:33 GMT+0700 (Indochina Time)	177.37.217.45:8080	1006.26ms	63460-000	Pereiro	Brazil	SOCKS4
Mon Apr 21 2025 15:27:33 GMT+0700 (Indochina Time)	45.87.68.6:15321	1047.37ms	60313	Frankfurt am Main	Germany	SOCKS4
Mon Apr 21 2025 15:27:33 GMT+0700 (Indochina Time)	139.159.102.236:3128	1055.91ms	510000	Guangzhou	China	SOCKS4
Mon Apr 21 2025 15:27:33 GMT+0700 (Indochina Time)	103.79.96.165:4153	1015.68ms		South Tangerang	Indonesia	SOCKS4
Mon Apr 21 2025 15:27:33 GMT+0700 (Indochina Time)	195.218.231.98:3128	1011.94ms	190805	St Petersburg	Russia	SOCKS4
Mon Apr 21 2025 15:27:34 GMT+0700 (Indochina Time)	154.66.108.34:10081	1009.01ms		Butha-Buthe	Lesotho	SOCKS4
Mon Apr 21 2025 15:27:34 GMT+0700 (Indochina Time)	92.205.28.187:32269	1027.66ms	67000	Strasbourg	France	SOCKS4
Mon Apr 21 2025 15:27:34 GMT+0700 (Indochina Time)	67.43.228.251:28285	1178.54ms	H4X	Montreal	Canada	SOCKS4
Mon Apr 21 2025 15:27:34 GMT+0700 (Indochina Time)	103.12.199.216:8080	1080.48ms	54000	Lahore	Pakistan	SOCKS4
Mon Apr 21 2025 15:27:34 GMT+0700 (Indochina Time)	85.113.156.89:55443	1003.06ms	394033	Voronezh	Russia	SOCKS4
Mon Apr 21 2025 15:27:35 GMT+0700 (Indochina Time)	45.77.120.87:1080	1055.38ms	90012	Los Angeles	United States	SOCKS4
Mon Apr 21 2025 15:27:35 GMT+0700 (Indochina Time)	178.220.148.82:10801	1241.97ms		?uprija	Serbia	SOCKS4
Mon Apr 21 2025 15:27:36 GMT+0700 (Indochina Time)	51.158.68.68:8811	1017.88ms	75001	Paris	France	SOCKS4
Mon Apr 21 2025 15:28:33 GMT+0700 (Indochina Time)	202.57.33.134:4145	1009.3ms	1128	Quezon City	Philippines	SOCKS4
Mon Apr 21 2025 15:28:33 GMT+0700 (Indochina Time)	103.61.198.234:4145	1009.0ms	1000	Brussels	Belgium	SOCKS4
Mon Apr 21 2025 15:28:33 GMT+0700 (Indochina Time)	121.88.70.59:53002	1017.03ms	41	Mapo-gu	South Korea	SOCKS4
Mon Apr 21 2025 15:28:33 GMT+0700 (Indochina Time)	125.25.43.202:8080	1030.84ms	10600	Bangkok	Thailand	SOCKS4
Mon Apr 21 2025 15:28:33 GMT+0700 (Indochina Time)	103.76.248.10:4153	1008.49ms	841224	Chak Baran	India	SOCKS4
Mon Apr 21 2025 15:28:33 GMT+0700 (Indochina Time)	103.154.76.2:8080	1273.14ms	83653	Aikmel	Indonesia	SOCKS4
Mon Apr 21 2025 15:28:34 GMT+0700 (Indochina Time)	222.252.23.5:8080	1650.17ms	100000	Hanoi	Vietnam	SOCKS4
Mon Apr 21 2025 15:28:34 GMT+0700 (Indochina Time)	46.109.146.244:4145	1001.23ms	LV-1063	Riga	Latvia	SOCKS4
Mon Apr 21 2025 15:28:34 GMT+0700 (Indochina Time)	67.43.227.227:10259	1014.8ms	H4X	Montreal	Canada	SOCKS4
Mon Apr 21 2025 15:28:34 GMT+0700 (Indochina Time)	186.216.127.224:3128	1142.18ms	35500	Divin?polis	Brazil	SOCKS4
Mon Apr 21 2025 15:28:34 GMT+0700 (Indochina Time)	156.228.105.226:3128	1033.3ms	20149	Ashburn	United States	SOCKS4
Mon Apr 21 2025 15:28:34 GMT+0700 (Indochina Time)	80.249.112.166:80	1067.57ms		Tehran	Iran	SOCKS4
Mon Apr 21 2025 15:28:34 GMT+0700 (Indochina Time)	188.166.30.17:8888	1001.7ms	1098	Amsterdam	The Netherlands	SOCKS4
Mon Apr 21 2025 15:28:35 GMT+0700 (Indochina Time)	45.225.76.53:3629	1017.88ms	24000	Niter?i	Brazil	SOCKS4
Mon Apr 21 2025 15:28:35 GMT+0700 (Indochina Time)	193.233.211.151:8085	997.42ms	7094	Secaucus	United States	SOCKS4
Mon Apr 21 2025 15:28:35 GMT+0700 (Indochina Time)	103.96.106.230:1080	1079.57ms	1209	Dhaka	Bangladesh	SOCKS4
Mon Apr 21 2025 15:28:35 GMT+0700 (Indochina Time)	172.233.254.134:1080	1477.21ms	75001	Paris	France	SOCKS4
Mon Apr 21 2025 15:28:35 GMT+0700 (Indochina Time)	165.232.154.69:8888	1014.67ms	95054	Santa Clara	United States	SOCKS4
Mon Apr 21 2025 15:28:36 GMT+0700 (Indochina Time)	159.8.114.37:8123	1577.15ms	92110	Clichy	France	SOCKS4
Mon Apr 21 2025 15:29:33 GMT+0700 (Indochina Time)	186.159.6.163:1994	1210.79ms	50007	Medell?n	Colombia	SOCKS4
Mon Apr 21 2025 15:29:33 GMT+0700 (Indochina Time)	103.231.239.137:58080	1370.53ms	6760	Ull?p?ra	Bangladesh	SOCKS4
Mon Apr 21 2025 15:29:33 GMT+0700 (Indochina Time)	119.81.71.27:8123	1347.63ms	858877	Singapore	Singapore	SOCKS4
Mon Apr 21 2025 15:29:33 GMT+0700 (Indochina Time)	170.233.240.3:3180	1046.91ms	24400-000	S?o Gon?alo	Brazil	SOCKS4
Mon Apr 21 2025 15:29:33 GMT+0700 (Indochina Time)	209.97.150.167:3128	1010.9ms	7014	Clifton	United States	SOCKS4
Mon Apr 21 2025 15:29:34 GMT+0700 (Indochina Time)	204.199.129.38:999	1274.92ms	34033	Santiago	Chile	SOCKS4
Mon Apr 21 2025 15:29:34 GMT+0700 (Indochina Time)	103.178.43.2:8181	1609.59ms	10340	Jakarta	Indonesia	SOCKS4
Mon Apr 21 2025 15:29:34 GMT+0700 (Indochina Time)	41.65.236.47:1981	1196.35ms		Cairo	Egypt	SOCKS4
Mon Apr 21 2025 15:29:35 GMT+0700 (Indochina Time)	182.253.112.194:8080	1013.91ms	51355	Weleri	Indonesia	SOCKS4
Mon Apr 21 2025 15:29:35 GMT+0700 (Indochina Time)	45.78.224.74:20000	1530.31ms	858877	Singapore	Singapore	SOCKS4
Mon Apr 21 2025 15:29:36 GMT+0700 (Indochina Time)	65.21.186.173:3129	1269.99ms	201	Helsinki	Finland	SOCKS4
Mon Apr 21 2025 15:29:36 GMT+0700 (Indochina Time)	46.29.116.3:4145	995.37ms	357500	Pyatigorsk	Russia	SOCKS4
Mon Apr 21 2025 15:29:36 GMT+0700 (Indochina Time)	27.77.224.111:1080	1035.3ms	700000	Ho Chi Minh City	Vietnam	SOCKS4
Mon Apr 21 2025 15:30:33 GMT+0700 (Indochina Time)	37.187.24.201:81	998.06ms	59100	Roubaix	France	SOCKS4
Mon Apr 21 2025 15:30:33 GMT+0700 (Indochina Time)	121.224.231.147:8089	1036.35ms	210000	Nanjing	China	SOCKS4
Mon Apr 21 2025 15:30:33 GMT+0700 (Indochina Time)	101.47.31.152:20000	1301.94ms	858877	Singapore	Singapore	SOCKS4
Mon Apr 21 2025 15:30:33 GMT+0700 (Indochina Time)	45.78.210.70:20000	1169.82ms	858877	Singapore	Singapore	SOCKS4
Mon Apr 21 2025 15:30:33 GMT+0700 (Indochina Time)	203.194.21.241:4153	1132.11ms	3001	Melbourne	Australia	SOCKS4
Mon Apr 21 2025 15:30:33 GMT+0700 (Indochina Time)	109.195.98.7:21776	1653.59ms	620000	Yekaterinburg	Russia	SOCKS4
Mon Apr 21 2025 15:30:33 GMT+0700 (Indochina Time)	190.95.132.189:999	1260.99ms		El Carmen	Ecuador	SOCKS4
Mon Apr 21 2025 15:30:33 GMT+0700 (Indochina Time)	184.178.172.11:4145	1053.02ms	24023	Roanoke	United States	SOCKS4
Mon Apr 21 2025 15:30:34 GMT+0700 (Indochina Time)	186.219.211.6:39427	1107.02ms	37930	Capit?lio	Brazil	SOCKS4
Mon Apr 21 2025 15:30:34 GMT+0700 (Indochina Time)	101.47.12.67:20000	1006.72ms	858877	Singapore	Singapore	SOCKS4
Mon Apr 21 2025 15:30:34 GMT+0700 (Indochina Time)	187.243.249.118:999	1007.61ms	85400	Guaymas	Mexico	SOCKS4
Mon Apr 21 2025 15:30:34 GMT+0700 (Indochina Time)	72.10.160.90:24163	1658.0ms	H4X	Montreal	Canada	SOCKS4
Mon Apr 21 2025 15:30:34 GMT+0700 (Indochina Time)	84.17.51.235:3128	1355.35ms	EC1N	London	United Kingdom	SOCKS4
Mon Apr 21 2025 15:30:34 GMT+0700 (Indochina Time)	45.78.229.221:20000	1002.04ms	858877	Singapore	Singapore	SOCKS4
Mon Apr 21 2025 15:30:34 GMT+0700 (Indochina Time)	103.114.11.197:8080	1051.55ms	1000	Dhaka	Bangladesh	SOCKS4
Mon Apr 21 2025 15:30:34 GMT+0700 (Indochina Time)	181.209.97.190:9998	1001.92ms	3714	Taco Pozo	Argentina	SOCKS4
Mon Apr 21 2025 15:30:34 GMT+0700 (Indochina Time)	202.58.199.229:5678	1406.7ms	80361	Denpasar	Indonesia	SOCKS4
Mon Apr 21 2025 15:30:34 GMT+0700 (Indochina Time)	45.238.112.228:56789	989.47ms	60000	Fortaleza	Brazil	SOCKS4
Mon Apr 21 2025 15:30:34 GMT+0700 (Indochina Time)	170.210.121.190:8080	1032.92ms	1871	Buenos Aires	Argentina	SOCKS4
Mon Apr 21 2025 15:30:34 GMT+0700 (Indochina Time)	212.49.69.67:5678	1011.47ms	9831	Nairobi	Kenya	SOCKS4
Mon Apr 21 2025 15:31:33 GMT+0700 (Indochina Time)	50.174.7.153:80	1468.61ms	8540	Princeton	United States	SOCKS4
Mon Apr 21 2025 15:31:33 GMT+0700 (Indochina Time)	72.50.33.170:999	1019.77ms	936	San Juan	Puerto Rico	SOCKS4
Mon Apr 21 2025 15:31:33 GMT+0700 (Indochina Time)	60.190.195.146:1080	1005.48ms	312000	Shaoxing	China	SOCKS4
Mon Apr 21 2025 15:31:34 GMT+0700 (Indochina Time)	3.207.43.183:80	1048.28ms	10123	New York	United States	SOCKS4
Mon Apr 21 2025 15:31:34 GMT+0700 (Indochina Time)	103.199.203.39:84	1042.23ms	846002	Darbhanga	India	SOCKS4
Mon Apr 21 2025 15:31:34 GMT+0700 (Indochina Time)	177.93.36.50:999	1018.27ms		Bel?n	Colombia	SOCKS4
Mon Apr 21 2025 15:31:34 GMT+0700 (Indochina Time)	187.94.16.59:39665	1674.02ms	44900	Irec?	Brazil	SOCKS4
Mon Apr 21 2025 15:31:35 GMT+0700 (Indochina Time)	152.53.36.109:45030	1025.47ms	20110	Manassas	United States	SOCKS4
Mon Apr 21 2025 15:31:35 GMT+0700 (Indochina Time)	177.85.205.177:3629	1533.52ms	44900	Irec?	Brazil	SOCKS4
Mon Apr 21 2025 15:31:35 GMT+0700 (Indochina Time)	27.65.29.86:1080	1009.39ms	700000	Ho Chi Minh City	Vietnam	SOCKS4
Mon Apr 21 2025 15:31:36 GMT+0700 (Indochina Time)	67.43.228.250:9281	1024.07ms	H4X	Montreal	Canada	SOCKS4
Mon Apr 21 2025 15:31:36 GMT+0700 (Indochina Time)	41.242.116.150:50000	1078.03ms	97600	Mamoudzou	Mayotte	SOCKS4
Mon Apr 21 2025 15:31:36 GMT+0700 (Indochina Time)	89.22.254.160:60606	1666.08ms		Yalta	Ukraine	SOCKS4
Mon Apr 21 2025 15:31:36 GMT+0700 (Indochina Time)	43.245.249.22:8989	1006.2ms		Pekanbaru	Indonesia	SOCKS4
Mon Apr 21 2025 15:31:36 GMT+0700 (Indochina Time)	82.155.28.72:34245	1251.34ms	4000-001	Porto	Portugal	SOCKS4
Mon Apr 21 2025 15:31:36 GMT+0700 (Indochina Time)	115.77.130.175:10001	1309.37ms	700000	Ho Chi Minh City	Vietnam	SOCKS4
Mon Apr 21 2025 15:32:33 GMT+0700 (Indochina Time)	103.112.22.22:84	1004.6ms	831001	Jamshedpur	India	SOCKS4
Mon Apr 21 2025 15:32:33 GMT+0700 (Indochina Time)	1.53.137.92:4145	1412.11ms	700000	Ho Chi Minh City	Vietnam	SOCKS4
Mon Apr 21 2025 15:32:33 GMT+0700 (Indochina Time)	103.160.201.26:1080	1016.18ms		Purbalingga	Indonesia	SOCKS4
Mon Apr 21 2025 15:32:33 GMT+0700 (Indochina Time)	103.1.50.133:3125	1722.32ms	61323	Mojokerto	Indonesia	SOCKS4
Mon Apr 21 2025 15:32:33 GMT+0700 (Indochina Time)	1.20.225.123:8080	1054.67ms	10210	Khwaeng Thung Song Hong	Thailand	SOCKS4
Mon Apr 21 2025 15:32:33 GMT+0700 (Indochina Time)	8.213.222.247:8081	1047.67ms	10200	Bangkok	Thailand	SOCKS4
Mon Apr 21 2025 15:32:34 GMT+0700 (Indochina Time)	183.240.46.42:443	1007.22ms	510000	Guangzhou	China	SOCKS4
Mon Apr 21 2025 15:32:34 GMT+0700 (Indochina Time)	191.102.254.11:8084	1022.84ms	2000	Rosario	Argentina	SOCKS4
Mon Apr 21 2025 15:32:34 GMT+0700 (Indochina Time)	41.162.94.52:30022	1033.49ms	4001	Durban	South Africa	SOCKS4
Mon Apr 21 2025 15:32:34 GMT+0700 (Indochina Time)	103.79.118.247:8118	991.91ms	90014	Los Angeles	United States	SOCKS4
Mon Apr 21 2025 15:32:35 GMT+0700 (Indochina Time)	188.132.150.37:8080	1012.39ms	6050	Ankara	Turkey	SOCKS4
Mon Apr 21 2025 15:32:35 GMT+0700 (Indochina Time)	103.134.251.203:32650	1034.3ms	127031	Bhiw?ni	India	SOCKS4
Mon Apr 21 2025 15:33:33 GMT+0700 (Indochina Time)	196.41.46.242:5678	1041.85ms		Dar es Salaam	Tanzania	SOCKS4
Mon Apr 21 2025 15:33:33 GMT+0700 (Indochina Time)	103.247.23.187:8080	1055.84ms		Baturaden	Indonesia	SOCKS4
Mon Apr 21 2025 15:33:33 GMT+0700 (Indochina Time)	27.189.129.106:8089	1157.78ms	50000	Shijiazhuang	China	SOCKS4
Mon Apr 21 2025 15:33:33 GMT+0700 (Indochina Time)	201.76.174.66:8080	1004.94ms	24000	Rio de Janeiro	Brazil	SOCKS4
Mon Apr 21 2025 15:33:34 GMT+0700 (Indochina Time)	178.49.22.23:1080	1052.98ms	630000	Novosibirsk	Russia	SOCKS4
Mon Apr 21 2025 15:33:34 GMT+0700 (Indochina Time)	67.43.227.227:23155	1059.21ms	H4X	Montreal	Canada	SOCKS4
Mon Apr 21 2025 15:33:35 GMT+0700 (Indochina Time)	108.175.23.225:13135	1507.21ms	77575	Liberty	United States	SOCKS4
Mon Apr 21 2025 15:33:35 GMT+0700 (Indochina Time)	200.106.184.21:999	1066.68ms	1804	Ezeiza	Argentina	SOCKS4
Mon Apr 21 2025 15:33:35 GMT+0700 (Indochina Time)	181.211.11.78:33145	1009.28ms		Quito	Ecuador	SOCKS4
Mon Apr 21 2025 15:33:35 GMT+0700 (Indochina Time)	210.246.240.42:14153	3028.59ms	11120	Pak Kret	Thailand	SOCKS4
Mon Apr 21 2025 15:33:35 GMT+0700 (Indochina Time)	69.49.234.59:55804	1012.49ms	30302	Atlanta	United States	SOCKS4
Mon Apr 21 2025 15:33:36 GMT+0700 (Indochina Time)	43.249.224.170:83	1007.03ms	500004	Hyderabad	India	SOCKS4
Mon Apr 21 2025 15:34:33 GMT+0700 (Indochina Time)	183.165.250.46:8089	1012.54ms	230000	Hefei	China	SOCKS4
Mon Apr 21 2025 15:34:33 GMT+0700 (Indochina Time)	186.0.144.81:9797	1019.57ms		Ara?atuba	Brazil	SOCKS4
Mon Apr 21 2025 15:34:33 GMT+0700 (Indochina Time)	66.29.154.103:3128	2171.0ms	90064	Los Angeles	United States	SOCKS4
Mon Apr 21 2025 15:34:33 GMT+0700 (Indochina Time)	94.253.95.241:3629	1008.78ms	141284	Ivanteyevka	Russia	SOCKS4
Mon Apr 21 2025 15:34:34 GMT+0700 (Indochina Time)	51.68.139.131:31609	1049.13ms	00-510	Warsaw	Poland	SOCKS4
Mon Apr 21 2025 15:34:34 GMT+0700 (Indochina Time)	193.122.123.43:28080	1557.47ms	2878	Seoul	South Korea	SOCKS4
Mon Apr 21 2025 15:34:34 GMT+0700 (Indochina Time)	190.121.157.142:999	1014.71ms	540001	C?cuta	Colombia	SOCKS4
Mon Apr 21 2025 15:34:34 GMT+0700 (Indochina Time)	67.43.228.252:9001	1033.08ms	H4X	Montreal	Canada	SOCKS4
Mon Apr 21 2025 15:34:34 GMT+0700 (Indochina Time)	170.39.119.109:1055	1054.76ms	20149	Ashburn	United States	SOCKS4
Mon Apr 21 2025 15:34:34 GMT+0700 (Indochina Time)	43.153.46.29:13001	995.44ms		Santa Clara	United States	SOCKS4
Mon Apr 21 2025 15:34:34 GMT+0700 (Indochina Time)	218.4.192.62:7302	1056.96ms		Suzhou	China	SOCKS4
Mon Apr 21 2025 15:34:35 GMT+0700 (Indochina Time)	190.89.37.73:999	990.01ms		Guananico	Dominican Republic	SOCKS4
Mon Apr 21 2025 15:34:35 GMT+0700 (Indochina Time)	164.68.110.241:8561	2856.2ms	67630	Lauterbourg	France	SOCKS4
Mon Apr 21 2025 15:34:35 GMT+0700 (Indochina Time)	186.96.96.134:999	1014.68ms	110111	Bogot?	Colombia	SOCKS4
Mon Apr 21 2025 15:34:36 GMT+0700 (Indochina Time)	138.117.230.129:999	1041.79ms	1111	La Democracia	Guatemala	SOCKS4
Mon Apr 21 2025 15:34:36 GMT+0700 (Indochina Time)	91.201.240.84:5678	1028.76ms	28008	Oleksandriya	Ukraine	SOCKS4
Mon Apr 21 2025 15:34:36 GMT+0700 (Indochina Time)	222.83.251.211:4145	1026.28ms	545000	Liuzhou	China	SOCKS4
Mon Apr 21 2025 15:35:33 GMT+0700 (Indochina Time)	45.7.177.226:39867	1281.06ms	57930	Passo de Camaragibe	Brazil	SOCKS4
Mon Apr 21 2025 15:35:33 GMT+0700 (Indochina Time)	36.92.185.29:1080	1005.8ms	65119	Malang	Indonesia	SOCKS4
Mon Apr 21 2025 15:35:33 GMT+0700 (Indochina Time)	113.172.154.115:10068	1018.63ms	700000	Ho Chi Minh City	Vietnam	SOCKS4
Mon Apr 21 2025 15:35:33 GMT+0700 (Indochina Time)	177.37.165.62:4153	1006.19ms	63460-000	Pereiro	Brazil	SOCKS4
Mon Apr 21 2025 15:35:33 GMT+0700 (Indochina Time)	172.235.29.87:8080	1002.48ms	600001	Chennai	India	SOCKS4
Mon Apr 21 2025 15:35:34 GMT+0700 (Indochina Time)	24.199.120.87:8888	1014.47ms	95054	Santa Clara	United States	SOCKS4
Mon Apr 21 2025 15:35:34 GMT+0700 (Indochina Time)	83.97.119.186:8085	1141.49ms	121	Helsinki	Finland	SOCKS4
Mon Apr 21 2025 15:35:34 GMT+0700 (Indochina Time)	156.239.38.214:1080	1011.89ms	90189	Los Angeles	United States	SOCKS4
Mon Apr 21 2025 15:35:34 GMT+0700 (Indochina Time)	119.82.251.250:31678	1467.35ms		Phnom Penh	Cambodia	SOCKS4
Mon Apr 21 2025 15:35:35 GMT+0700 (Indochina Time)	3.24.58.156:3128	1108.81ms	2000	Sydney	Australia	SOCKS4
Mon Apr 21 2025 15:35:35 GMT+0700 (Indochina Time)	88.150.15.30:80	1164.32ms	39114	Magdeburg	Germany	SOCKS4
Mon Apr 21 2025 15:35:35 GMT+0700 (Indochina Time)	101.47.129.222:20000	1056.75ms	858877	Singapore	Singapore	SOCKS4
Mon Apr 21 2025 15:36:33 GMT+0700 (Indochina Time)	83.168.74.163:8080	2066.08ms	50-201	Wroclaw	Poland	SOCKS4
Mon Apr 21 2025 15:36:33 GMT+0700 (Indochina Time)	72.10.160.170:3007	1467.22ms	H4X	Montreal	Canada	SOCKS4
Mon Apr 21 2025 15:36:33 GMT+0700 (Indochina Time)	110.78.153.49:4145	1530.24ms	10500	Bang Rak	Thailand	SOCKS4
Mon Apr 21 2025 15:36:34 GMT+0700 (Indochina Time)	211.234.125.3:443	1009.0ms	6596	Yongsan-dong	South Korea	SOCKS4
Mon Apr 21 2025 15:36:34 GMT+0700 (Indochina Time)	58.214.243.92:80	1471.8ms		Wuxi	China	SOCKS4
Mon Apr 21 2025 15:36:34 GMT+0700 (Indochina Time)	103.160.56.5:10101	1007.53ms		Sekayu	Indonesia	SOCKS4
Mon Apr 21 2025 15:36:34 GMT+0700 (Indochina Time)	103.200.37.31:1080	1016.31ms	2210	Mukt?g?cha	Bangladesh	SOCKS4
Mon Apr 21 2025 15:36:35 GMT+0700 (Indochina Time)	177.128.44.130:6006	1007.72ms	93800	Sapiranga	Brazil	SOCKS4
Mon Apr 21 2025 15:36:35 GMT+0700 (Indochina Time)	38.255.21.130:999	1498.69ms		Quito	Ecuador	SOCKS4
Mon Apr 21 2025 15:36:35 GMT+0700 (Indochina Time)	171.221.174.104:10800	1004.5ms		Chengdu	China	SOCKS4
Mon Apr 21 2025 15:36:35 GMT+0700 (Indochina Time)	103.207.170.131:5678	1003.33ms	302005	Jaipur	India	SOCKS4
Mon Apr 21 2025 15:36:35 GMT+0700 (Indochina Time)	202.151.163.10:1080	993.82ms		Ng? H?nh S?n	Vietnam	SOCKS4
Mon Apr 21 2025 15:37:33 GMT+0700 (Indochina Time)	.10.164.178:7485	1097.84ms	----	--	Unknown	SOCKS4
Mon Apr 21 2025 15:37:33 GMT+0700 (Indochina Time)	199.102.105.242:4145	1301.02ms	90211	Beverly Hills	United States	SOCKS4
Mon Apr 21 2025 15:37:33 GMT+0700 (Indochina Time)	187.103.73.165:5566	1038.19ms	53000	Recife	Brazil	SOCKS4
Mon Apr 21 2025 15:37:33 GMT+0700 (Indochina Time)	72.10.160.171:12659	1138.21ms	H4X	Montreal	Canada	SOCKS4
Mon Apr 21 2025 15:37:33 GMT+0700 (Indochina Time)	103.235.152.170:57413	1014.28ms	60273	Surabaya	Indonesia	SOCKS4
Mon Apr 21 2025 15:37:34 GMT+0700 (Indochina Time)	103.244.38.36:3125	1027.51ms		Gubengairlangga	Indonesia	SOCKS4
Mon Apr 21 2025 15:37:34 GMT+0700 (Indochina Time)	49.248.32.110:41363	1021.77ms	400104	Mumbai	India	SOCKS4
Mon Apr 21 2025 15:37:34 GMT+0700 (Indochina Time)	110.49.34.126:32650	1001.42ms	10110	Bangkok	Thailand	SOCKS4
Mon Apr 21 2025 15:37:34 GMT+0700 (Indochina Time)	217.52.247.77:1981	1390.48ms		Cairo	Egypt	SOCKS4
Mon Apr 21 2025 15:37:34 GMT+0700 (Indochina Time)	103.221.254.59:1088	1141.56ms	2210	Dhaka	Bangladesh	SOCKS4
Mon Apr 21 2025 15:37:35 GMT+0700 (Indochina Time)	103.156.75.130:1111	1008.75ms	80571	Gianyar	Indonesia	SOCKS4
Mon Apr 21 2025 15:37:35 GMT+0700 (Indochina Time)	81.0.63.214:8080	997.34ms	8940	Cornell? de Llobregat	Spain	SOCKS4
Mon Apr 21 2025 15:37:35 GMT+0700 (Indochina Time)	108.175.23.49:13135	1016.44ms	77575	Liberty	United States	SOCKS4
Mon Apr 21 2025 15:37:36 GMT+0700 (Indochina Time)	92.207.253.226:4145	1007.75ms	W1B	London	United Kingdom	SOCKS4
Mon Apr 21 2025 15:38:33 GMT+0700 (Indochina Time)	41.77.210.210:80	1263.93ms		Quatre Bornes	Mauritius	SOCKS4
Mon Apr 21 2025 15:38:33 GMT+0700 (Indochina Time)	50.193.36.173:8080	1002.2ms	94553	Martinez	United States	SOCKS4
Mon Apr 21 2025 15:38:34 GMT+0700 (Indochina Time)	38.156.233.77:999	999.25ms	11807	Santo Domingo Este	Dominican Republic	SOCKS4
Mon Apr 21 2025 15:38:34 GMT+0700 (Indochina Time)	86.100.63.127:4145	1454.53ms	94007	Klaip?da	Lithuania	SOCKS4
Mon Apr 21 2025 15:38:34 GMT+0700 (Indochina Time)	208.113.161.0:23089	1220.66ms	92821	Brea	United States	SOCKS4
Mon Apr 21 2025 15:38:34 GMT+0700 (Indochina Time)	5.75.155.221:8888	995.14ms	90403	Nuremberg	Germany	SOCKS4
Mon Apr 21 2025 15:38:34 GMT+0700 (Indochina Time)	67.43.236.18:31233	1030.44ms	H4X	Montreal	Canada	SOCKS4
Mon Apr 21 2025 15:38:34 GMT+0700 (Indochina Time)	115.72.167.120:10025	1001.21ms	790000	V?ng T?u	Vietnam	SOCKS4
Mon Apr 21 2025 15:38:34 GMT+0700 (Indochina Time)	178.143.12.103:4153	1004.23ms	058 01	Poprad	Slovakia	SOCKS4
Mon Apr 21 2025 15:38:36 GMT+0700 (Indochina Time)	186.115.217.107:8080	2122.64ms	111321	Bogot?	Colombia	SOCKS4
Mon Apr 21 2025 15:39:33 GMT+0700 (Indochina Time)	182.73.143.146:53977	1031.77ms	600113	Chennai	India	SOCKS4
Mon Apr 21 2025 15:39:33 GMT+0700 (Indochina Time)	221.228.154.184:8089	1014.26ms	210000	Nanjing	China	SOCKS4
Mon Apr 21 2025 15:39:34 GMT+0700 (Indochina Time)	185.105.102.189:80	1013.81ms		Tehran	Iran	SOCKS4
Mon Apr 21 2025 15:39:34 GMT+0700 (Indochina Time)	8.209.96.245:5060	1020.91ms	60313	Frankfurt am Main	Germany	SOCKS4
Mon Apr 21 2025 15:39:34 GMT+0700 (Indochina Time)	46.150.23.93:58820	1500.95ms	61071	Kharkiv	Ukraine	SOCKS4
Mon Apr 21 2025 15:39:34 GMT+0700 (Indochina Time)	181.13.198.90:4153	1006.09ms	2505	Las Parejas	Argentina	SOCKS4
Mon Apr 21 2025 15:39:35 GMT+0700 (Indochina Time)	67.43.227.228:27945	1012.67ms	H4X	Montreal	Canada	SOCKS4
Mon Apr 21 2025 15:39:35 GMT+0700 (Indochina Time)	103.175.202.182:8090	1000.51ms		Batulicin	Indonesia	SOCKS4
Mon Apr 21 2025 15:39:35 GMT+0700 (Indochina Time)	103.81.194.125:4444	1249.07ms	16830	Bogor	Indonesia	SOCKS4
Mon Apr 21 2025 15:39:35 GMT+0700 (Indochina Time)	101.47.19.205:20000	997.57ms	858877	Singapore	Singapore	SOCKS4
Mon Apr 21 2025 15:39:36 GMT+0700 (Indochina Time)	196.216.65.57:8080	1007.5ms	9831	Nairobi	Kenya	SOCKS4
Mon Apr 21 2025 15:39:36 GMT+0700 (Indochina Time)	103.15.242.216:55492	1657.98ms		Sunggal	Indonesia	SOCKS4
Mon Apr 21 2025 15:39:36 GMT+0700 (Indochina Time)	38.156.15.160:999	1650.89ms	47300	Yahualica de Gonz?lez Gallo	Mexico	SOCKS4
Mon Apr 21 2025 15:39:36 GMT+0700 (Indochina Time)	185.49.96.94:8080	2002.39ms		Tehran	Iran	SOCKS4
Mon Apr 21 2025 15:40:33 GMT+0700 (Indochina Time)	67.43.227.227:1533	2159.81ms	H4X	Montreal	Canada	SOCKS4
Mon Apr 21 2025 15:40:33 GMT+0700 (Indochina Time)	202.62.227.41:31606	1030.2ms	700052	Kolkata	India	SOCKS4
Mon Apr 21 2025 15:40:33 GMT+0700 (Indochina Time)	45.78.213.107:20000	1011.88ms	858877	Singapore	Singapore	SOCKS4
Mon Apr 21 2025 15:40:33 GMT+0700 (Indochina Time)	168.227.158.9:4145	1057.91ms	27600	Valen?a	Brazil	SOCKS4
Mon Apr 21 2025 15:40:33 GMT+0700 (Indochina Time)	200.24.204.245:999	1003.34ms		Guayaquil	Ecuador	SOCKS4
Mon Apr 21 2025 15:40:34 GMT+0700 (Indochina Time)	27.147.144.122:4153	992.05ms	1900	T?ng?il	Bangladesh	SOCKS4
Mon Apr 21 2025 15:40:34 GMT+0700 (Indochina Time)	122.146.95.183:4145	1012.85ms		Taoyuan District	Taiwan	SOCKS4
Mon Apr 21 2025 15:40:34 GMT+0700 (Indochina Time)	52.211.219.193:3128	1268.53ms	D02	Dublin	Ireland	SOCKS4
Mon Apr 21 2025 15:40:34 GMT+0700 (Indochina Time)	72.221.196.157:35904	1009.81ms	92101	San Diego	United States	SOCKS4
Mon Apr 21 2025 15:40:34 GMT+0700 (Indochina Time)	103.134.98.97:83	1017.53ms	517520	Tirupati	India	SOCKS4
Mon Apr 21 2025 15:40:34 GMT+0700 (Indochina Time)	103.170.22.50:8089	2063.16ms	53191	Banyumas	Indonesia	SOCKS4
Mon Apr 21 2025 15:40:35 GMT+0700 (Indochina Time)	59.37.128.138:8082	1012.46ms	510000	Guangzhou	China	SOCKS4
Mon Apr 21 2025 15:40:36 GMT+0700 (Indochina Time)	202.51.112.22:5430	1018.1ms		Jakarta	Indonesia	SOCKS4
Mon Apr 21 2025 15:41:33 GMT+0700 (Indochina Time)	77.241.20.215:55915	2431.86ms	305000	Kursk	Russia	SOCKS4
Mon Apr 21 2025 15:41:33 GMT+0700 (Indochina Time)	67.43.228.253:24397	1008.21ms	H4X	Montreal	Canada	SOCKS4
Mon Apr 21 2025 15:41:33 GMT+0700 (Indochina Time)	221.120.218.190:5678	1013.56ms		Rajanpur	Pakistan	SOCKS4
Mon Apr 21 2025 15:41:33 GMT+0700 (Indochina Time)	188.166.252.135:8080	1129.57ms	627753	Singapore	Singapore	SOCKS4
Mon Apr 21 2025 15:41:33 GMT+0700 (Indochina Time)	103.189.250.67:1452	1002.32ms	68471	East Java	Indonesia	SOCKS4
Mon Apr 21 2025 15:41:33 GMT+0700 (Indochina Time)	78.188.119.253:5678	1009.0ms	34122	Istanbul	Turkey	SOCKS4
Mon Apr 21 2025 15:41:34 GMT+0700 (Indochina Time)	95.66.138.21:8880	1004.75ms	600000	Vladimir	Russia	SOCKS4
Mon Apr 21 2025 15:41:34 GMT+0700 (Indochina Time)	119.10.179.33:5430	1002.6ms	16830	Bogor	Indonesia	SOCKS4
Mon Apr 21 2025 15:41:34 GMT+0700 (Indochina Time)	119.42.123.215:4145	1281.45ms	20150	Pattaya	Thailand	SOCKS4
Mon Apr 21 2025 15:41:34 GMT+0700 (Indochina Time)	81.12.157.98:5678	5337.65ms	52829	Bucharest	Romania	SOCKS4
Mon Apr 21 2025 15:41:35 GMT+0700 (Indochina Time)	111.225.153.67:8089	1633.87ms	50000	Shijiazhuang	China	SOCKS4
Mon Apr 21 2025 15:41:35 GMT+0700 (Indochina Time)	139.255.94.122:39635	1042.18ms	40241	Bandung	Indonesia	SOCKS4
Mon Apr 21 2025 15:41:35 GMT+0700 (Indochina Time)	36.89.156.146:8080	1210.23ms	10450	Jakarta	Indonesia	SOCKS4
Mon Apr 21 2025 15:41:35 GMT+0700 (Indochina Time)	103.184.180.21:8080	1027.45ms	64123	Kediri	Indonesia	SOCKS4
Mon Apr 21 2025 15:42:33 GMT+0700 (Indochina Time)	64.225.4.81:10014	1033.36ms	7014	Clifton	United States	SOCKS4
Mon Apr 21 2025 15:42:33 GMT+0700 (Indochina Time)	103.83.174.95:4145	1073.0ms		Ciputat	Indonesia	SOCKS4
Mon Apr 21 2025 15:42:34 GMT+0700 (Indochina Time)	222.174.252.54:7300	1005.37ms	250000	Jinan	China	SOCKS4
Mon Apr 21 2025 15:42:35 GMT+0700 (Indochina Time)	110.78.149.125:4145	1252.74ms		Trat	Thailand	SOCKS4
Mon Apr 21 2025 15:42:35 GMT+0700 (Indochina Time)	45.78.211.255:20000	1001.3ms	858877	Singapore	Singapore	SOCKS4
Mon Apr 21 2025 15:42:35 GMT+0700 (Indochina Time)	13.38.153.36:80	1400.37ms	75000	Paris	France	SOCKS4
Mon Apr 21 2025 15:42:35 GMT+0700 (Indochina Time)	104.143.224.190:6051	1019.89ms	W1H	London	United Kingdom	SOCKS4
Mon Apr 21 2025 15:42:35 GMT+0700 (Indochina Time)	47.95.113.242:9001	1543.25ms		Beijing	China	SOCKS4
Mon Apr 21 2025 15:42:35 GMT+0700 (Indochina Time)	47.100.207.117:8080	1049.82ms		Shanghai	China	SOCKS4
Mon Apr 21 2025 15:42:35 GMT+0700 (Indochina Time)	41.111.187.214:80	1369.37ms	16006	Algiers	Algeria	SOCKS4
Mon Apr 21 2025 15:42:36 GMT+0700 (Indochina Time)	47.238.130.212:9050	1054.47ms	999077	Hong Kong	Hong Kong	SOCKS4
Mon Apr 21 2025 15:43:33 GMT+0700 (Indochina Time)	117.80.188.209:8089	2110.05ms	210000	Nanjing	China	SOCKS4
Mon Apr 21 2025 15:43:33 GMT+0700 (Indochina Time)	43.130.14.101:13001	1335.88ms		Santa Clara	United States	SOCKS4
Mon Apr 21 2025 15:43:33 GMT+0700 (Indochina Time)	67.222.110.74:26039	1012.34ms	91311	Los Angeles	United States	SOCKS4
Mon Apr 21 2025 15:43:33 GMT+0700 (Indochina Time)	80.94.118.192:4145	1012.97ms	20123	Milan	Italy	SOCKS4
Mon Apr 21 2025 15:43:33 GMT+0700 (Indochina Time)	82.206.131.58:10801	2289.26ms	W4	London	United Kingdom	SOCKS4
Mon Apr 21 2025 15:43:34 GMT+0700 (Indochina Time)	185.123.143.247:3128	1036.0ms	77160	Pope?ti-Leordeni	Romania	SOCKS4
Mon Apr 21 2025 15:43:34 GMT+0700 (Indochina Time)	8.213.215.187:443	1005.67ms	10200	Bangkok	Thailand	SOCKS4
Mon Apr 21 2025 15:43:34 GMT+0700 (Indochina Time)	91.121.163.199:11633	1008.52ms	59100	Roubaix	France	SOCKS4
Mon Apr 21 2025 15:43:34 GMT+0700 (Indochina Time)	46.209.15.187:8080	1006.17ms		Tehran	Iran	SOCKS4
Mon Apr 21 2025 15:43:34 GMT+0700 (Indochina Time)	64.225.8.132:10007	1045.94ms	7014	Clifton	United States	SOCKS4
Mon Apr 21 2025 15:43:34 GMT+0700 (Indochina Time)	46.163.124.109:80	1299.52ms	50672	Cologne	Germany	SOCKS4
Mon Apr 21 2025 15:43:34 GMT+0700 (Indochina Time)	112.98.218.73:57658	1028.43ms	150000	Harbin	China	SOCKS4
Mon Apr 21 2025 15:43:34 GMT+0700 (Indochina Time)	103.105.103.1:3629	1032.88ms	520015	Vijayawada	India	SOCKS4
Mon Apr 21 2025 15:43:34 GMT+0700 (Indochina Time)	206.189.130.107:8080	1012.56ms	560100	Bengaluru	India	SOCKS4
Mon Apr 21 2025 15:43:35 GMT+0700 (Indochina Time)	103.234.55.173:80	1006.78ms	96521	Central	Hong Kong	SOCKS4
Mon Apr 21 2025 15:43:35 GMT+0700 (Indochina Time)	110.49.110.45:8080	1015.76ms	10400	Ratchathewi	Thailand	SOCKS4
Mon Apr 21 2025 15:43:36 GMT+0700 (Indochina Time)	36.93.217.219:5678	1037.87ms	16830	Bogor	Indonesia	SOCKS4
Mon Apr 21 2025 15:44:54 GMT+0700 (Indochina Time)	64.227.131.240:1080	1784.54ms	560100	Bengaluru	India	SOCKS4
Mon Apr 21 2025 15:45:35 GMT+0700 (Indochina Time)	49.0.156.20:32000	1390.48ms		Ulan Bator	Mongolia	SOCKS4
Mon Apr 21 2025 15:46:28 GMT+0700 (Indochina Time)	125.234.159.213:1080	1221.68ms	700000	Ho Chi Minh City	Vietnam	SOCKS4
Mon Apr 21 2025 15:46:33 GMT+0700 (Indochina Time)	34.124.190.108:8080	3541.29ms	190464	Singapore	Singapore	SOCKS4
Mon Apr 21 2025 15:46:37 GMT+0700 (Indochina Time)	94.181.33.149:40840	3665.39ms	454082	Chelyabinsk	Russia	SOCKS4
Mon Apr 21 2025 15:47:26 GMT+0700 (Indochina Time)	138.197.135.199:28592	3315.03ms	M5A	Toronto	Canada	SOCKS4