LIVE CHECK	IP:PORT	Ping	Zip	City	Country	Type
Mon Apr 21 2025 15:19:07 GMT+0700 (Indochina Time)	138.2.133.156:22222	1282.35ms	60326	Frankfurt am Main	Germany	SOCKS5
Mon Apr 21 2025 15:20:33 GMT+0700 (Indochina Time)	164.90.242.76:3128	1175.69ms	60313	Frankfurt am Main	Germany	SOCKS5
Mon Apr 21 2025 15:20:33 GMT+0700 (Indochina Time)	51.222.155.142:80	1369.78ms	J6N	Beauharnois	Canada	SOCKS5
Mon Apr 21 2025 15:20:33 GMT+0700 (Indochina Time)	24.144.114.216:8888	1622.88ms	7047	North Bergen	United States	SOCKS5
Mon Apr 21 2025 15:20:35 GMT+0700 (Indochina Time)	43.159.28.112:10142	1062.18ms	48616	Singapore	Singapore	SOCKS5
Mon Apr 21 2025 15:20:36 GMT+0700 (Indochina Time)	43.135.186.62:13001	1229.94ms		Santa Clara	United States	SOCKS5
Mon Apr 21 2025 15:20:36 GMT+0700 (Indochina Time)	178.48.68.61:4145	1195.84ms	1011	Budapest	Hungary	SOCKS5
Mon Apr 21 2025 15:21:33 GMT+0700 (Indochina Time)	186.103.133.91:5678	1039.02ms	34033	Santiago	Chile	SOCKS5
Mon Apr 21 2025 15:21:33 GMT+0700 (Indochina Time)	114.254.98.14:1080	1295.07ms		Beijing	China	SOCKS5
Mon Apr 21 2025 15:21:33 GMT+0700 (Indochina Time)	84.221.212.22:4145	1007.63ms	40139	Bologna	Italy	SOCKS5
Mon Apr 21 2025 15:21:33 GMT+0700 (Indochina Time)	148.72.212.125:47586	1169.99ms	100-0001	Chiyoda	Japan	SOCKS5
Mon Apr 21 2025 15:21:33 GMT+0700 (Indochina Time)	90.146.16.34:4145	1015.87ms	4020	Linz	Austria	SOCKS5
Mon Apr 21 2025 15:21:34 GMT+0700 (Indochina Time)	190.61.57.45:8080	1004.1ms	111711	Bogot?	Colombia	SOCKS5
Mon Apr 21 2025 15:21:34 GMT+0700 (Indochina Time)	67.43.228.251:8341	1658.05ms	H4X	Montreal	Canada	SOCKS5
Mon Apr 21 2025 15:21:34 GMT+0700 (Indochina Time)	45.166.155.42:8080	1687.47ms	40000	Salvador	Brazil	SOCKS5
Mon Apr 21 2025 15:21:34 GMT+0700 (Indochina Time)	43.130.169.32:22065	1016.84ms	20149	Ashburn	United States	SOCKS5
Mon Apr 21 2025 15:21:34 GMT+0700 (Indochina Time)	67.43.228.250:26263	1010.9ms	H4X	Montreal	Canada	SOCKS5
Mon Apr 21 2025 15:21:35 GMT+0700 (Indochina Time)	118.113.245.46:2324	1002.25ms		Muping	China	SOCKS5
Mon Apr 21 2025 15:21:35 GMT+0700 (Indochina Time)	111.132.16.11:3389	1011.69ms		Beijing	China	SOCKS5
Mon Apr 21 2025 15:21:35 GMT+0700 (Indochina Time)	185.185.168.112:1080	1048.59ms	2140	Espoo	Finland	SOCKS5
Mon Apr 21 2025 15:22:33 GMT+0700 (Indochina Time)	217.76.243.2:999	1017.99ms	31124	Chihuahua City	Mexico	SOCKS5
Mon Apr 21 2025 15:22:33 GMT+0700 (Indochina Time)	72.10.160.170:8831	1032.78ms	H4X	Montreal	Canada	SOCKS5
Mon Apr 21 2025 15:22:33 GMT+0700 (Indochina Time)	185.155.34.81:4153	1019.55ms	289 34	Ro??alovice	Czechia	SOCKS5
Mon Apr 21 2025 15:22:33 GMT+0700 (Indochina Time)	35.154.78.253:1080	1501.94ms	400001	Mumbai	India	SOCKS5
Mon Apr 21 2025 15:22:34 GMT+0700 (Indochina Time)	45.43.70.57:6344	1001.75ms	EC4R	London	United Kingdom	SOCKS5
Mon Apr 21 2025 15:22:35 GMT+0700 (Indochina Time)	119.18.158.131:4153	1093.06ms		Cibinong	Indonesia	SOCKS5
Mon Apr 21 2025 15:22:35 GMT+0700 (Indochina Time)	123.16.32.162:8080	1003.73ms	100000	Hanoi	Vietnam	SOCKS5
Mon Apr 21 2025 15:22:35 GMT+0700 (Indochina Time)	103.60.187.1:52195	1205.11ms	121010	Noida	India	SOCKS5
Mon Apr 21 2025 15:22:35 GMT+0700 (Indochina Time)	78.83.237.146:4153	1456.03ms	1000	Sofia	Bulgaria	SOCKS5
Mon Apr 21 2025 15:22:35 GMT+0700 (Indochina Time)	212.192.31.37:3128	1009.13ms	60313	Frankfurt am Main	Germany	SOCKS5
Mon Apr 21 2025 15:22:36 GMT+0700 (Indochina Time)	106.14.173.45:3129	1006.05ms		Shanghai	China	SOCKS5
Mon Apr 21 2025 15:23:33 GMT+0700 (Indochina Time)	49.146.248.18:8082	1042.91ms	6000	Cebu City	Philippines	SOCKS5
Mon Apr 21 2025 15:23:33 GMT+0700 (Indochina Time)	109.232.106.150:52435	1033.89ms	143000	Moscow	Russia	SOCKS5
Mon Apr 21 2025 15:23:33 GMT+0700 (Indochina Time)	177.240.4.125:999	1023.75ms	67400	Ciudad General Ter?n	Mexico	SOCKS5
Mon Apr 21 2025 15:23:33 GMT+0700 (Indochina Time)	80.63.107.90:4153	1010.49ms	2000	Frederiksberg	Denmark	SOCKS5
Mon Apr 21 2025 15:23:33 GMT+0700 (Indochina Time)	103.114.98.217:6000	1011.93ms	3700	Lakshm?pur	Bangladesh	SOCKS5
Mon Apr 21 2025 15:23:33 GMT+0700 (Indochina Time)	104.207.35.106:3128	1046.25ms	20149	Ashburn	United States	SOCKS5
Mon Apr 21 2025 15:23:33 GMT+0700 (Indochina Time)	115.124.86.250:5678	1170.5ms		Jakarta	Indonesia	SOCKS5
Mon Apr 21 2025 15:23:34 GMT+0700 (Indochina Time)	185.193.137.109:8080	1008.89ms	141500	Solnechnogorsk	Russia	SOCKS5
Mon Apr 21 2025 15:23:35 GMT+0700 (Indochina Time)	103.19.130.50:8080	1093.77ms	1360	Dhaka	Bangladesh	SOCKS5
Mon Apr 21 2025 15:24:33 GMT+0700 (Indochina Time)	213.19.205.198:1080	1034.29ms	1012	Amsterdam	The Netherlands	SOCKS5
Mon Apr 21 2025 15:24:33 GMT+0700 (Indochina Time)	103.247.23.231:1111	2566.61ms		Baturaden	Indonesia	SOCKS5
Mon Apr 21 2025 15:24:33 GMT+0700 (Indochina Time)	103.67.163.32:10165	1405.19ms		Qui Nhon	Vietnam	SOCKS5
Mon Apr 21 2025 15:24:33 GMT+0700 (Indochina Time)	43.247.38.57:8080	1009.97ms	17135	Bekasi	Indonesia	SOCKS5
Mon Apr 21 2025 15:24:33 GMT+0700 (Indochina Time)	45.64.11.241:8080	1274.26ms	110054	Delhi	India	SOCKS5
Mon Apr 21 2025 15:24:34 GMT+0700 (Indochina Time)	165.16.27.30:1981	1644.41ms		Benghazi	Libya	SOCKS5
Mon Apr 21 2025 15:24:34 GMT+0700 (Indochina Time)	13.38.176.104:3128	1011.43ms	75000	Paris	France	SOCKS5
Mon Apr 21 2025 15:24:35 GMT+0700 (Indochina Time)	103.102.141.56:4145	1026.03ms		Jakarta	Indonesia	SOCKS5
Mon Apr 21 2025 15:24:35 GMT+0700 (Indochina Time)	63.34.176.150:3128	1374.75ms	D02	Dublin	Ireland	SOCKS5
Mon Apr 21 2025 15:24:36 GMT+0700 (Indochina Time)	182.210.74.163:4145	1472.21ms	26	Dongdaemun	South Korea	SOCKS5
Mon Apr 21 2025 15:25:33 GMT+0700 (Indochina Time)	131.100.48.100:999	1682.28ms		Mil?n	Colombia	SOCKS5
Mon Apr 21 2025 15:25:33 GMT+0700 (Indochina Time)	185.170.233.110:47574	1744.59ms		Limassol	Cyprus	SOCKS5
Mon Apr 21 2025 15:25:33 GMT+0700 (Indochina Time)	94.103.83.90:3128	1015.79ms	109950	Moscow	Russia	SOCKS5
Mon Apr 21 2025 15:25:34 GMT+0700 (Indochina Time)	27.189.130.85:8089	1395.65ms	50000	Shijiazhuang	China	SOCKS5
Mon Apr 21 2025 15:25:34 GMT+0700 (Indochina Time)	159.65.144.65:15302	1022.62ms	560100	Bengaluru	India	SOCKS5
Mon Apr 21 2025 15:25:34 GMT+0700 (Indochina Time)	102.132.76.29:5678	1027.9ms	8446	Kathu	South Africa	SOCKS5
Mon Apr 21 2025 15:25:35 GMT+0700 (Indochina Time)	202.131.159.210:1111	1596.77ms	400017	Mumbai	India	SOCKS5
Mon Apr 21 2025 15:25:35 GMT+0700 (Indochina Time)	103.163.102.104:3125	1044.4ms		Gapurana Daya	Indonesia	SOCKS5
Mon Apr 21 2025 15:25:35 GMT+0700 (Indochina Time)	212.126.107.86:47193	1005.3ms		Erbil	Iraq	SOCKS5
Mon Apr 21 2025 15:25:36 GMT+0700 (Indochina Time)	80.58.149.246:4145	1063.07ms	28030	Madrid	Spain	SOCKS5
Mon Apr 21 2025 15:26:33 GMT+0700 (Indochina Time)	46.227.38.2:1088	1049.85ms	09-533	S?ubice	Poland	SOCKS5
Mon Apr 21 2025 15:26:33 GMT+0700 (Indochina Time)	103.71.64.130:3129	1012.41ms	413002	Solapur	India	SOCKS5
Mon Apr 21 2025 15:26:33 GMT+0700 (Indochina Time)	185.82.96.162:9093	996.52ms		Beirut	Lebanon	SOCKS5
Mon Apr 21 2025 15:26:33 GMT+0700 (Indochina Time)	168.0.8.36:4153	1374.18ms	57230	Coruripe	Brazil	SOCKS5
Mon Apr 21 2025 15:26:33 GMT+0700 (Indochina Time)	46.105.105.223:54030	1010.94ms	59100	Roubaix	France	SOCKS5
Mon Apr 21 2025 15:26:33 GMT+0700 (Indochina Time)	212.252.78.39:1080	1022.53ms	34381	?i?li	Turkey	SOCKS5
Mon Apr 21 2025 15:26:34 GMT+0700 (Indochina Time)	72.10.164.178:8429	1014.8ms	H4X	Montreal	Canada	SOCKS5
Mon Apr 21 2025 15:26:34 GMT+0700 (Indochina Time)	46.105.87.167:53281	1021.34ms	59100	Roubaix	France	SOCKS5
Mon Apr 21 2025 15:26:34 GMT+0700 (Indochina Time)	12.218.209.130:53281	1016.76ms	95141	San Jose	United States	SOCKS5
Mon Apr 21 2025 15:26:34 GMT+0700 (Indochina Time)	175.101.85.129:8080	1002.44ms	522503	Mangalagiri	India	SOCKS5
Mon Apr 21 2025 15:26:35 GMT+0700 (Indochina Time)	103.160.207.49:32650	1905.42ms	244001	Mor?d?b?d	India	SOCKS5
Mon Apr 21 2025 15:26:35 GMT+0700 (Indochina Time)	110.44.126.249:5678	1020.54ms		Kathmandu	Nepal	SOCKS5
Mon Apr 21 2025 15:27:33 GMT+0700 (Indochina Time)	37.58.48.132:5256	1587.3ms	60326	Frankfurt am Main	Germany	SOCKS5
Mon Apr 21 2025 15:27:33 GMT+0700 (Indochina Time)	64.225.8.132:10006	1039.22ms	7014	Clifton	United States	SOCKS5
Mon Apr 21 2025 15:27:33 GMT+0700 (Indochina Time)	45.5.94.178:3128	1008.65ms	25016	Saltillo	Mexico	SOCKS5
Mon Apr 21 2025 15:27:34 GMT+0700 (Indochina Time)	167.179.45.56:4153	1013.84ms		Phnom Penh	Cambodia	SOCKS5
Mon Apr 21 2025 15:27:35 GMT+0700 (Indochina Time)	45.5.209.12:4145	1016.58ms	88790	Laguna	Brazil	SOCKS5
Mon Apr 21 2025 15:27:35 GMT+0700 (Indochina Time)	138.68.60.8:1080	1031.32ms	95051	Santa Clara	United States	SOCKS5
Mon Apr 21 2025 15:27:36 GMT+0700 (Indochina Time)	132.148.27.149:24297	1060.29ms	85284	Tempe	United States	SOCKS5
Mon Apr 21 2025 15:27:36 GMT+0700 (Indochina Time)	38.51.237.4:999	1046.88ms		Cabimas	Venezuela	SOCKS5
Mon Apr 21 2025 15:27:36 GMT+0700 (Indochina Time)	175.29.161.186:10808	1015.89ms	60313	Frankfurt am Main	Germany	SOCKS5
Mon Apr 21 2025 15:28:33 GMT+0700 (Indochina Time)	103.47.93.246:1080	1005.45ms	282001	Agra	India	SOCKS5
Mon Apr 21 2025 15:28:34 GMT+0700 (Indochina Time)	.43.227.227:18123	1193.05ms	----	--	Unknown	SOCKS5
Mon Apr 21 2025 15:28:34 GMT+0700 (Indochina Time)	148.101.179.182:8080	1015.47ms	10201	Santo Domingo	Dominican Republic	SOCKS5
Mon Apr 21 2025 15:28:34 GMT+0700 (Indochina Time)	176.235.164.177:40276	2140.18ms	27700	Nizip	Turkey	SOCKS5
Mon Apr 21 2025 15:28:35 GMT+0700 (Indochina Time)	38.25.102.2:999	1534.15ms		Lima	Peru	SOCKS5
Mon Apr 21 2025 15:28:35 GMT+0700 (Indochina Time)	121.200.50.33:3128	1335.76ms	641044	Coimbatore	India	SOCKS5
Mon Apr 21 2025 15:28:35 GMT+0700 (Indochina Time)	121.22.90.82:443	1108.63ms	75000	Zhangjiakou	China	SOCKS5
Mon Apr 21 2025 15:29:33 GMT+0700 (Indochina Time)	103.52.211.206:1080	1027.15ms	737134	Gangtok	India	SOCKS5
Mon Apr 21 2025 15:29:33 GMT+0700 (Indochina Time)	67.43.228.250:2079	2008.38ms	H4X	Montreal	Canada	SOCKS5
Mon Apr 21 2025 15:29:34 GMT+0700 (Indochina Time)	67.43.236.20:2123	1083.39ms	H4X	Montreal	Canada	SOCKS5
Mon Apr 21 2025 15:29:34 GMT+0700 (Indochina Time)	51.75.126.150:9532	8459.46ms	59100	Roubaix	France	SOCKS5
Mon Apr 21 2025 15:29:34 GMT+0700 (Indochina Time)	32.223.6.94:80	1002.85ms	6604	Bridgeport	United States	SOCKS5
Mon Apr 21 2025 15:29:34 GMT+0700 (Indochina Time)	172.105.193.238:1080	1226.5ms	791-1511	Shinagawa	Japan	SOCKS5
Mon Apr 21 2025 15:29:35 GMT+0700 (Indochina Time)	8.221.139.222:8008	1071.71ms	102-0082	Tokyo	Japan	SOCKS5
Mon Apr 21 2025 15:29:35 GMT+0700 (Indochina Time)	47.243.205.142:5555	1007.84ms	999077	Hong Kong	Hong Kong	SOCKS5
Mon Apr 21 2025 15:29:36 GMT+0700 (Indochina Time)	118.113.245.21:2324	1032.23ms		Muping	China	SOCKS5
Mon Apr 21 2025 15:30:33 GMT+0700 (Indochina Time)	203.215.167.71:1080	1004.57ms	46000	Rawalpindi	Pakistan	SOCKS5
Mon Apr 21 2025 15:30:33 GMT+0700 (Indochina Time)	72.10.160.90:22081	1018.76ms	H4X	Montreal	Canada	SOCKS5
Mon Apr 21 2025 15:30:33 GMT+0700 (Indochina Time)	121.13.252.61:61401	1043.45ms		Dongguan	China	SOCKS5
Mon Apr 21 2025 15:30:33 GMT+0700 (Indochina Time)	103.156.71.86:8880	1024.36ms	68418	Banyuwangi	Indonesia	SOCKS5
Mon Apr 21 2025 15:30:34 GMT+0700 (Indochina Time)	196.0.113.10:31651	1529.05ms		Kampala	Uganda	SOCKS5
Mon Apr 21 2025 15:30:34 GMT+0700 (Indochina Time)	170.106.196.226:13001	1013.47ms	95052	Santa Clara	United States	SOCKS5
Mon Apr 21 2025 15:30:34 GMT+0700 (Indochina Time)	188.191.165.159:8080	1011.69ms	140105	Ramenskoye	Russia	SOCKS5
Mon Apr 21 2025 15:30:35 GMT+0700 (Indochina Time)	8.221.141.88:11	1020.6ms	102-0082	Tokyo	Japan	SOCKS5
Mon Apr 21 2025 15:30:35 GMT+0700 (Indochina Time)	68.185.57.66:80	1087.49ms	98908	Yakima	United States	SOCKS5
Mon Apr 21 2025 15:31:33 GMT+0700 (Indochina Time)	125.141.133.49:5566	1367.55ms	87	Gwanak-gu	South Korea	SOCKS5
Mon Apr 21 2025 15:31:33 GMT+0700 (Indochina Time)	103.163.13.124:8080	1317.81ms		Bojonegoro	Indonesia	SOCKS5
Mon Apr 21 2025 15:31:33 GMT+0700 (Indochina Time)	120.28.139.232:8080	1604.63ms	1409	Caloocan City	Philippines	SOCKS5
Mon Apr 21 2025 15:31:34 GMT+0700 (Indochina Time)	103.118.175.70:8080	1015.71ms		Tigaraksa	Indonesia	SOCKS5
Mon Apr 21 2025 15:31:35 GMT+0700 (Indochina Time)	175.139.179.65:42580	1010.02ms	59100	Kuala Lumpur	Malaysia	SOCKS5
Mon Apr 21 2025 15:32:33 GMT+0700 (Indochina Time)	78.140.7.239:40009	1030.44ms	634000	Tomsk	Russia	SOCKS5
Mon Apr 21 2025 15:32:33 GMT+0700 (Indochina Time)	103.245.204.42:8080	1034.67ms	1206	Dhaka	Bangladesh	SOCKS5
Mon Apr 21 2025 15:32:33 GMT+0700 (Indochina Time)	204.93.178.122:31195	1016.41ms	60602	Chicago	United States	SOCKS5
Mon Apr 21 2025 15:32:34 GMT+0700 (Indochina Time)	24.199.116.75:8888	1012.21ms	95054	Santa Clara	United States	SOCKS5
Mon Apr 21 2025 15:32:34 GMT+0700 (Indochina Time)	143.198.231.248:8888	1007.16ms	95054	Santa Clara	United States	SOCKS5
Mon Apr 21 2025 15:32:34 GMT+0700 (Indochina Time)	8.213.137.155:8089	1035.18ms	4524	Seoul	South Korea	SOCKS5
Mon Apr 21 2025 15:32:34 GMT+0700 (Indochina Time)	179.49.239.1:999	1007.35ms	34033	Santiago	Chile	SOCKS5
Mon Apr 21 2025 15:32:34 GMT+0700 (Indochina Time)	222.68.35.12:8118	1003.27ms		Shanghai	China	SOCKS5
Mon Apr 21 2025 15:32:34 GMT+0700 (Indochina Time)	18.134.236.231:3128	1043.58ms	W1B	London	United Kingdom	SOCKS5
Mon Apr 21 2025 15:32:35 GMT+0700 (Indochina Time)	114.96.218.231:3000	1351.02ms	230000	Hefei	China	SOCKS5
Mon Apr 21 2025 15:32:35 GMT+0700 (Indochina Time)	45.176.97.90:999	1021.11ms	11605	Santo Domingo Este	Dominican Republic	SOCKS5
Mon Apr 21 2025 15:32:35 GMT+0700 (Indochina Time)	103.125.174.85:8080	1012.71ms		Lubuk Pakam	Indonesia	SOCKS5
Mon Apr 21 2025 15:33:33 GMT+0700 (Indochina Time)	201.77.108.1:999	1025.26ms	33980	Jim?nez Municipality	Mexico	SOCKS5
Mon Apr 21 2025 15:33:33 GMT+0700 (Indochina Time)	190.120.249.7:4153	1043.57ms		Valencia	Venezuela	SOCKS5
Mon Apr 21 2025 15:33:33 GMT+0700 (Indochina Time)	1.179.144.41:8080	1005.9ms	10200	Bangkok	Thailand	SOCKS5
Mon Apr 21 2025 15:33:33 GMT+0700 (Indochina Time)	196.1.95.124:80	1025.92ms		Dakar	Senegal	SOCKS5
Mon Apr 21 2025 15:33:33 GMT+0700 (Indochina Time)	.43.227.227:17685	1021.62ms	----	--	Unknown	SOCKS5
Mon Apr 21 2025 15:33:34 GMT+0700 (Indochina Time)	94.102.234.186:32650	1010.79ms		Budva	Montenegro	SOCKS5
Mon Apr 21 2025 15:33:34 GMT+0700 (Indochina Time)	51.254.182.54:1000	995.9ms	75000	Paris	France	SOCKS5
Mon Apr 21 2025 15:33:35 GMT+0700 (Indochina Time)	8.212.165.164:10801	1418.31ms	1003	Manila	Philippines	SOCKS5
Mon Apr 21 2025 15:33:35 GMT+0700 (Indochina Time)	50.195.7.180:64312	1011.04ms	1775	Stow	United States	SOCKS5
Mon Apr 21 2025 15:33:36 GMT+0700 (Indochina Time)	36.255.61.136:5678	1008.71ms	1003	Manila	Philippines	SOCKS5
Mon Apr 21 2025 15:33:36 GMT+0700 (Indochina Time)	181.196.246.246:4145	1000.72ms		Guayaquil	Ecuador	SOCKS5
Mon Apr 21 2025 15:34:33 GMT+0700 (Indochina Time)	184.170.249.65:4145	1212.13ms	30302	Atlanta	United States	SOCKS5
Mon Apr 21 2025 15:34:33 GMT+0700 (Indochina Time)	67.43.228.254:6477	1044.18ms	H4X	Montreal	Canada	SOCKS5
Mon Apr 21 2025 15:34:33 GMT+0700 (Indochina Time)	201.163.73.93:55443	1014.23ms	36273	Mezquite de Sotelo	Mexico	SOCKS5
Mon Apr 21 2025 15:34:34 GMT+0700 (Indochina Time)	64.31.49.174:3128	1044.06ms	33197	Miami	United States	SOCKS5
Mon Apr 21 2025 15:34:35 GMT+0700 (Indochina Time)	58.209.68.254:8089	1153.17ms	210000	Nanjing	China	SOCKS5
Mon Apr 21 2025 15:34:35 GMT+0700 (Indochina Time)	50.221.230.186:80	1057.34ms	15217	Pittsburgh	United States	SOCKS5
Mon Apr 21 2025 15:34:35 GMT+0700 (Indochina Time)	207.97.174.134:1080	1009.28ms	10018	New York	United States	SOCKS5
Mon Apr 21 2025 15:34:36 GMT+0700 (Indochina Time)	103.214.201.209:80	1031.59ms	4000	Chittagong	Bangladesh	SOCKS5
Mon Apr 21 2025 15:35:33 GMT+0700 (Indochina Time)	209.97.163.81:8888	1059.14ms	627753	Singapore	Singapore	SOCKS5
Mon Apr 21 2025 15:35:33 GMT+0700 (Indochina Time)	116.108.21.141:10045	1215.78ms	700000	Ho Chi Minh City	Vietnam	SOCKS5
Mon Apr 21 2025 15:35:33 GMT+0700 (Indochina Time)	104.223.103.218:3428	1036.42ms	90060	Los Angeles	United States	SOCKS5
Mon Apr 21 2025 15:35:34 GMT+0700 (Indochina Time)	23.81.207.122:5256	1662.66ms	85261	Scottsdale	United States	SOCKS5
Mon Apr 21 2025 15:35:34 GMT+0700 (Indochina Time)	67.43.228.253:8075	1014.07ms	H4X	Montreal	Canada	SOCKS5
Mon Apr 21 2025 15:35:34 GMT+0700 (Indochina Time)	45.191.47.1:999	1631.99ms	417030	Pitalito	Colombia	SOCKS5
Mon Apr 21 2025 15:35:34 GMT+0700 (Indochina Time)	5.196.111.29:20658	1603.49ms	59820	Gravelines	France	SOCKS5
Mon Apr 21 2025 15:35:35 GMT+0700 (Indochina Time)	67.43.227.227:30701	1563.81ms	H4X	Montreal	Canada	SOCKS5
Mon Apr 21 2025 15:35:35 GMT+0700 (Indochina Time)	67.43.227.227:2015	1720.14ms	H4X	Montreal	Canada	SOCKS5
Mon Apr 21 2025 15:35:35 GMT+0700 (Indochina Time)	202.58.108.1:36819	1339.71ms	28070	Madrid	Spain	SOCKS5
Mon Apr 21 2025 15:36:33 GMT+0700 (Indochina Time)	45.43.64.236:6494	1220.99ms	EC4R	London	United Kingdom	SOCKS5
Mon Apr 21 2025 15:36:33 GMT+0700 (Indochina Time)	46.51.249.135:3128	1013.84ms	150-0002	Tokyo	Japan	SOCKS5
Mon Apr 21 2025 15:36:33 GMT+0700 (Indochina Time)	93.64.183.162:32889	998.75ms	49	Velletri	Italy	SOCKS5
Mon Apr 21 2025 15:36:33 GMT+0700 (Indochina Time)	149.108.91.26:8080	1026.92ms	15810	Tangerang	Indonesia	SOCKS5
Mon Apr 21 2025 15:36:34 GMT+0700 (Indochina Time)	103.102.85.1:8080	1042.1ms	603306	Madur?ntakam	India	SOCKS5
Mon Apr 21 2025 15:36:34 GMT+0700 (Indochina Time)	64.225.4.81:10010	1020.86ms	7014	Clifton	United States	SOCKS5
Mon Apr 21 2025 15:36:34 GMT+0700 (Indochina Time)	106.12.156.26:80	1029.8ms	100000	Beijing	China	SOCKS5
Mon Apr 21 2025 15:36:34 GMT+0700 (Indochina Time)	118.67.170.121:4153	1037.64ms	8620	Gwangmyeong	South Korea	SOCKS5
Mon Apr 21 2025 15:36:34 GMT+0700 (Indochina Time)	103.28.121.58:80	1023.48ms	1208	Dhaka	Bangladesh	SOCKS5
Mon Apr 21 2025 15:36:35 GMT+0700 (Indochina Time)	91.192.24.97:4153	1019.28ms	52027	San Giovanni Valdarno	Italy	SOCKS5
Mon Apr 21 2025 15:36:36 GMT+0700 (Indochina Time)	132.148.166.93:54279	1335.73ms	20149	Ashburn	United States	SOCKS5
Mon Apr 21 2025 15:36:36 GMT+0700 (Indochina Time)	45.78.211.119:20000	1392.3ms	858877	Singapore	Singapore	SOCKS5
Mon Apr 21 2025 15:36:36 GMT+0700 (Indochina Time)	190.53.46.2:45580	999.35ms		Ticuantepe	Nicaragua	SOCKS5
Mon Apr 21 2025 15:37:33 GMT+0700 (Indochina Time)	103.156.15.83:1111	1521.51ms	16810	Bogor	Indonesia	SOCKS5
Mon Apr 21 2025 15:37:33 GMT+0700 (Indochina Time)	38.7.131.33:999	1344.63ms	61000	La Boca de Mao Abajo	Dominican Republic	SOCKS5
Mon Apr 21 2025 15:37:34 GMT+0700 (Indochina Time)	62.94.202.114:4153	1001.33ms	198	Rome	Italy	SOCKS5
Mon Apr 21 2025 15:37:34 GMT+0700 (Indochina Time)	103.66.176.45:32251	1193.95ms	1312	Naw?b Char	Bangladesh	SOCKS5
Mon Apr 21 2025 15:37:34 GMT+0700 (Indochina Time)	67.43.236.20:21509	1011.62ms	H4X	Montreal	Canada	SOCKS5
Mon Apr 21 2025 15:37:35 GMT+0700 (Indochina Time)	121.101.190.241:43296	1271.41ms		Banjarmasin	Indonesia	SOCKS5
Mon Apr 21 2025 15:37:35 GMT+0700 (Indochina Time)	103.126.173.13:8080	1536.01ms		Kedaton	Indonesia	SOCKS5
Mon Apr 21 2025 15:37:35 GMT+0700 (Indochina Time)	202.152.15.2:4145	1004.38ms		Jakarta	Indonesia	SOCKS5
Mon Apr 21 2025 15:37:35 GMT+0700 (Indochina Time)	47.252.11.233:14186	1015.05ms	22902	Charlottesville	United States	SOCKS5
Mon Apr 21 2025 15:37:35 GMT+0700 (Indochina Time)	43.153.7.172:13001	1002.63ms		Santa Clara	United States	SOCKS5
Mon Apr 21 2025 15:38:33 GMT+0700 (Indochina Time)	72.10.160.171:6905	1042.89ms	H4X	Montreal	Canada	SOCKS5
Mon Apr 21 2025 15:38:33 GMT+0700 (Indochina Time)	.10.164.178:5011	1013.3ms	----	--	Unknown	SOCKS5
Mon Apr 21 2025 15:38:33 GMT+0700 (Indochina Time)	113.108.13.120:8083	1019.99ms		Shenzhen	China	SOCKS5
Mon Apr 21 2025 15:38:33 GMT+0700 (Indochina Time)	47.237.2.245:9080	1011.1ms	858877	Singapore	Singapore	SOCKS5
Mon Apr 21 2025 15:38:33 GMT+0700 (Indochina Time)	122.50.5.98:4153	1381.25ms	16830	Bogor	Indonesia	SOCKS5
Mon Apr 21 2025 15:38:34 GMT+0700 (Indochina Time)	98.152.200.61:8081	1454.8ms	90077	Los Angeles	United States	SOCKS5
Mon Apr 21 2025 15:38:35 GMT+0700 (Indochina Time)	183.165.244.241:8089	999.49ms	230000	Hefei	China	SOCKS5
Mon Apr 21 2025 15:38:35 GMT+0700 (Indochina Time)	183.88.224.86:8080	1141.42ms	10150	Bangkok	Thailand	SOCKS5
Mon Apr 21 2025 15:38:35 GMT+0700 (Indochina Time)	92.86.92.126:42740	1462.02ms	707400	R?duc?neni	Romania	SOCKS5
Mon Apr 21 2025 15:38:36 GMT+0700 (Indochina Time)	190.119.102.251:999	1010.22ms		Cocachacra	Peru	SOCKS5
Mon Apr 21 2025 15:38:36 GMT+0700 (Indochina Time)	103.144.94.54:3629	1015.04ms	360004	Rajkot	India	SOCKS5
Mon Apr 21 2025 15:39:33 GMT+0700 (Indochina Time)	111.132.16.69:3389	1268.45ms		Beijing	China	SOCKS5
Mon Apr 21 2025 15:39:33 GMT+0700 (Indochina Time)	159.65.245.255:80	1089.52ms	7014	Clifton	United States	SOCKS5
Mon Apr 21 2025 15:39:34 GMT+0700 (Indochina Time)	115.74.154.173:1080	1005.86ms	752000	Tam B?nh	Vietnam	SOCKS5
Mon Apr 21 2025 15:39:34 GMT+0700 (Indochina Time)	67.43.236.20:18045	1019.43ms	H4X	Montreal	Canada	SOCKS5
Mon Apr 21 2025 15:39:34 GMT+0700 (Indochina Time)	104.207.34.213:3128	1187.55ms	20149	Ashburn	United States	SOCKS5
Mon Apr 21 2025 15:39:34 GMT+0700 (Indochina Time)	45.5.116.144:999	1356.61ms	1014	Guatemala City	Guatemala	SOCKS5
Mon Apr 21 2025 15:39:35 GMT+0700 (Indochina Time)	99.56.147.242:56250	1009.88ms	75219	Dallas	United States	SOCKS5
Mon Apr 21 2025 15:39:35 GMT+0700 (Indochina Time)	43.153.66.118:80	1003.71ms		Santa Clara	United States	SOCKS5
Mon Apr 21 2025 15:39:35 GMT+0700 (Indochina Time)	85.159.6.20:3629	1000.95ms	1011	Kyiv	Ukraine	SOCKS5
Mon Apr 21 2025 15:39:35 GMT+0700 (Indochina Time)	177.139.130.157:4153	1253.48ms	1000	S?o Paulo	Brazil	SOCKS5
Mon Apr 21 2025 15:39:36 GMT+0700 (Indochina Time)	131.161.65.15:9999	991.24ms	48490	Inhambupe	Brazil	SOCKS5
Mon Apr 21 2025 15:39:36 GMT+0700 (Indochina Time)	31.145.149.75:9090	1006.14ms	34096	Istanbul	T?rkiye	SOCKS5
Mon Apr 21 2025 15:39:36 GMT+0700 (Indochina Time)	47.122.65.254:3128	1015.18ms		Nanjing	China	SOCKS5
Mon Apr 21 2025 15:39:36 GMT+0700 (Indochina Time)	103.247.217.17:8080	1392.78ms		Jakarta	Indonesia	SOCKS5
Mon Apr 21 2025 15:39:36 GMT+0700 (Indochina Time)	103.145.132.16:8080	1030.8ms		Sonargaon	Bangladesh	SOCKS5
Mon Apr 21 2025 15:40:33 GMT+0700 (Indochina Time)	67.43.228.253:12895	1015.8ms	H4X	Montreal	Canada	SOCKS5
Mon Apr 21 2025 15:40:33 GMT+0700 (Indochina Time)	168.227.106.100:48609	1311.9ms	111211	Bogot?	Colombia	SOCKS5
Mon Apr 21 2025 15:40:33 GMT+0700 (Indochina Time)	72.10.160.170:3261	1346.23ms	H4X	Montreal	Canada	SOCKS5
Mon Apr 21 2025 15:40:34 GMT+0700 (Indochina Time)	81.177.73.10:4153	1398.96ms		St Petersburg	Russia	SOCKS5
Mon Apr 21 2025 15:40:35 GMT+0700 (Indochina Time)	104.207.54.16:3128	1580.4ms	20149	Ashburn	United States	SOCKS5
Mon Apr 21 2025 15:40:36 GMT+0700 (Indochina Time)	67.43.236.20:15243	999.11ms	H4X	Montreal	Canada	SOCKS5
Mon Apr 21 2025 15:41:33 GMT+0700 (Indochina Time)	177.124.225.106:4145	1003.42ms	24000	Rio de Janeiro	Brazil	SOCKS5
Mon Apr 21 2025 15:41:33 GMT+0700 (Indochina Time)	91.217.72.126:6855	1044.63ms	2000	Sydney	Australia	SOCKS5
Mon Apr 21 2025 15:41:34 GMT+0700 (Indochina Time)	95.216.194.46:1080	1005.62ms	201	Helsinki	Finland	SOCKS5
Mon Apr 21 2025 15:41:34 GMT+0700 (Indochina Time)	190.228.171.254:4145	1014.7ms	2900	San Nicol?s de los Arroyos	Argentina	SOCKS5
Mon Apr 21 2025 15:41:34 GMT+0700 (Indochina Time)	103.36.8.134:3125	998.65ms	42262	Pandeglang	Indonesia	SOCKS5
Mon Apr 21 2025 15:41:34 GMT+0700 (Indochina Time)	175.29.198.62:10805	1054.74ms	1212	Dhaka	Bangladesh	SOCKS5
Mon Apr 21 2025 15:41:34 GMT+0700 (Indochina Time)	146.103.56.23:5571	1198.68ms	EC1N	London	United Kingdom	SOCKS5
Mon Apr 21 2025 15:41:34 GMT+0700 (Indochina Time)	193.34.95.110:8080	1060.58ms	40000	Sumy	Ukraine	SOCKS5
Mon Apr 21 2025 15:41:36 GMT+0700 (Indochina Time)	67.43.228.253:26131	1031.02ms	H4X	Montreal	Canada	SOCKS5
Mon Apr 21 2025 15:41:36 GMT+0700 (Indochina Time)	131.255.138.162:80	1380.99ms		San Isidro	Peru	SOCKS5
Mon Apr 21 2025 15:41:36 GMT+0700 (Indochina Time)	78.158.188.252:1080	1001.7ms		Tehran	Iran	SOCKS5
Mon Apr 21 2025 15:42:33 GMT+0700 (Indochina Time)	188.132.221.4:8080	1280.3ms	31030	Antakya	T?rkiye	SOCKS5
Mon Apr 21 2025 15:42:33 GMT+0700 (Indochina Time)	20.205.61.143:80	1011.93ms	0	Hong Kong	Hong Kong	SOCKS5
Mon Apr 21 2025 15:42:34 GMT+0700 (Indochina Time)	114.4.241.210:5678	1029.18ms	12830	Jakarta	Indonesia	SOCKS5
Mon Apr 21 2025 15:42:34 GMT+0700 (Indochina Time)	67.43.227.226:6989	1004.74ms	H4X	Montreal	Canada	SOCKS5
Mon Apr 21 2025 15:42:34 GMT+0700 (Indochina Time)	46.175.1.65:8080	1040.75ms	072 63	Ko?u?	Slovakia	SOCKS5
Mon Apr 21 2025 15:42:35 GMT+0700 (Indochina Time)	181.78.104.183:999	1012.98ms	1010	Guatemala City	Guatemala	SOCKS5
Mon Apr 21 2025 15:42:35 GMT+0700 (Indochina Time)	45.43.64.105:6363	1423.07ms	EC4R	London	United Kingdom	SOCKS5
Mon Apr 21 2025 15:42:35 GMT+0700 (Indochina Time)	202.158.49.141:39172	998.72ms		Pabuaran	Indonesia	SOCKS5
Mon Apr 21 2025 15:42:35 GMT+0700 (Indochina Time)	8.218.160.143:1080	1006.77ms	999077	Hong Kong	Hong Kong	SOCKS5
Mon Apr 21 2025 15:42:36 GMT+0700 (Indochina Time)	1.10.189.156:51336	1123.95ms	10120	Bangkok	Thailand	SOCKS5
Mon Apr 21 2025 15:43:33 GMT+0700 (Indochina Time)	143.47.59.115:8118	1023.78ms	28037	Madrid	Spain	SOCKS5
Mon Apr 21 2025 15:43:33 GMT+0700 (Indochina Time)	103.173.141.4:8080	1050.88ms	63218	Ngawi	Indonesia	SOCKS5
Mon Apr 21 2025 15:43:34 GMT+0700 (Indochina Time)	185.83.144.206:60096	1033.02ms		Denizli	Turkey	SOCKS5
Mon Apr 21 2025 15:43:34 GMT+0700 (Indochina Time)	8.213.129.15:9999	1027.0ms	4524	Seoul	South Korea	SOCKS5
Mon Apr 21 2025 15:43:34 GMT+0700 (Indochina Time)	79.110.200.148:8081	1044.74ms	53-501	Wroclaw	Poland	SOCKS5
Mon Apr 21 2025 15:43:34 GMT+0700 (Indochina Time)	154.73.28.79:8080	1253.66ms		Tripoli	Libya	SOCKS5
Mon Apr 21 2025 15:43:34 GMT+0700 (Indochina Time)	67.43.227.227:2831	1010.66ms	H4X	Montreal	Canada	SOCKS5
Mon Apr 21 2025 15:43:35 GMT+0700 (Indochina Time)	67.43.227.230:25645	1055.15ms	H4X	Montreal	Canada	SOCKS5
Mon Apr 21 2025 15:43:35 GMT+0700 (Indochina Time)	114.69.232.37:4145	1049.8ms	400059	Mumbai	India	SOCKS5
Mon Apr 21 2025 15:43:35 GMT+0700 (Indochina Time)	93.184.7.73:1080	1252.08ms		Dolev	Israel	SOCKS5
Mon Apr 21 2025 15:43:36 GMT+0700 (Indochina Time)	177.37.166.166:4153	1414.0ms	63460-000	Pereiro	Brazil	SOCKS5
Mon Apr 21 2025 15:43:36 GMT+0700 (Indochina Time)	103.38.103.18:1080	1001.83ms		Jakarta	Indonesia	SOCKS5
Mon Apr 21 2025 15:44:46 GMT+0700 (Indochina Time)	170.39.119.109:1072	1477.62ms	20149	Ashburn	United States	SOCKS5
Mon Apr 21 2025 15:45:16 GMT+0700 (Indochina Time)	91.235.180.44:1080	3007.36ms	618900	Lys'va	Russia	SOCKS5
Mon Apr 21 2025 15:46:05 GMT+0700 (Indochina Time)	85.175.219.236:1080	2948.94ms	350000	Krasnodar	Russia	SOCKS5
Mon Apr 21 2025 15:47:15 GMT+0700 (Indochina Time)	46.105.105.223:50160	8468.29ms	59100	Roubaix	France	SOCKS5
Mon Apr 21 2025 15:47:30 GMT+0700 (Indochina Time)	27.254.67.114:37328	3878.06ms	10320	Huai Khwang	Thailand	SOCKS5
Mon Apr 21 2025 15:48:27 GMT+0700 (Indochina Time)	223.25.109.146:1080	9426.01ms		Pinrang	Indonesia	SOCKS5